{"type":"FeatureCollection", "features": [
{"type":"Feature","geometry":{"type":"MultiPolygon","coordinates":[[[[-1.3717,45.9953],[-1.2604,45.8818],[-1.2336,45.9917],[-1.3717,45.9953]]],[[[-1.4528,50.6543],[-1.3155,50.5892],[-1.1684,50.6035],[-1.0623,50.6928],[-1.2958,50.7732],[-1.5059,50.7077],[-1.4528,50.6543]]],[[[-3.0463,54.9821],[-3.1228,54.9327],[-3.2765,54.9434],[-3.3879,54.8834],[-3.4396,54.7615],[-3.5007,54.726],[-3.6342,54.5129],[-3.4743,54.3935],[-3.4074,54.2777],[-3.241,54.1121],[-3.1179,54.1088],[-3.061,54.1619],[-2.8509,54.1846],[-2.796,54.1252],[-2.9182,54.0343],[-2.882,53.9565],[-3.0176,53.932],[-3.0492,53.7695],[-2.9517,53.7081],[-3.0995,53.572],[-3.0583,53.4348],[-3.1852,53.3773],[-3.1222,53.2623],[-3.3303,53.3518],[-3.5623,53.2944],[-3.7163,53.2869],[-3.7689,53.3192],[-4.0669,53.2291],[-4.1515,53.2281],[-4.3409,53.1127],[-4.3582,53.0285],[-4.5961,52.9284],[-4.7554,52.8093],[-4.6486,52.7996],[-4.501,52.8268],[-4.4066,52.8925],[-4.2285,52.9192],[-4.1299,52.8892],[-4.1252,52.7783],[-4.0488,52.7216],[-4.1222,52.6287],[-4.0531,52.5424],[-4.0963,52.3879],[-4.1971,52.2793],[-4.5138,52.1357],[-4.6375,52.1385],[-4.7776,52.0649],[-4.9617,52.0075],[-5.0702,52.0264],[-5.1195,51.9589],[-5.2889,51.9169],[-5.1259,51.856],[-5.1071,51.7881],[-5.2301,51.73],[-5.0099,51.7064],[-5.0512,51.6569],[-4.941,51.5965],[-4.8483,51.6463],[-4.7123,51.6501],[-4.6454,51.7321],[-4.3793,51.7269],[-4.2937,51.6723],[-4.2725,51.5548],[-3.9746,51.563],[-3.8549,51.6238],[-3.7179,51.4786],[-3.5392,51.3985],[-3.2894,51.3842],[-3.1848,51.3976],[-3.1056,51.4972],[-2.8587,51.5461],[-2.6938,51.5962],[-2.6962,51.5126],[-2.8164,51.4736],[-2.9596,51.3743],[-3.0575,51.2082],[-3.385,51.1862],[-3.4342,51.2098],[-3.7692,51.2477],[-4.1523,51.2116],[-4.2098,51.1728],[-4.2347,51.0553],[-4.3377,50.9966],[-4.5264,51.015],[-4.5501,50.8096],[-4.7281,50.6723],[-4.7925,50.5952],[-4.8957,50.5859],[-5.0253,50.5242],[-5.0503,50.4287],[-5.1465,50.3553],[-5.438,50.1943],[-5.511,50.2195],[-5.6846,50.1615],[-5.7051,50.0523],[-5.5784,50.0548],[-5.4748,50.1304],[-5.324,50.0895],[-5.2104,49.9667],[-5.0981,50.0144],[-5.1061,50.0951],[-5.0204,50.192],[-4.8002,50.2296],[-4.7521,50.3303],[-4.4954,50.3284],[-4.3837,50.3675],[-4.2523,50.3564],[-4.2161,50.4157],[-4.0329,50.2949],[-3.9499,50.319],[-3.8263,50.2342],[-3.6456,50.226],[-3.632,50.3123],[-3.5389,50.3444],[-3.4875,50.4116],[-3.505,50.5012],[-3.4673,50.5856],[-3.2956,50.6375],[-3.2598,50.6745],[-2.8648,50.7338],[-2.6929,50.6928],[-2.4835,50.5904],[-2.4359,50.6375],[-1.9837,50.5966],[-1.9493,50.7133],[-1.6706,50.7401],[-1.3173,50.8002],[-1.0562,50.783],[-0.9392,50.8432],[-0.8128,50.7348],[-0.569,50.8021],[-0.3976,50.8021],[-0.1732,50.829],[0.1221,50.7608],[0.271,50.7474],[0.3703,50.8188],[0.6242,50.8587],[0.8023,50.9392],[0.9452,50.9094],[1.0276,51.0417],[1.3572,51.131],[1.4131,51.2217],[1.3806,51.3048],[1.4238,51.3921],[1.1009,51.3732],[0.9772,51.3492],[0.7644,51.3644],[0.5545,51.4122],[0.7713,51.5283],[0.9245,51.5883],[0.9518,51.6784],[0.887,51.7821],[0.9888,51.8303],[1.1354,51.7817],[1.2883,51.8606],[1.3323,51.9401],[1.5037,52.061],[1.5823,52.0815],[1.6305,52.2705],[1.7712,52.4859],[1.7472,52.6252],[1.6442,52.7758],[1.396,52.8914],[1.2747,52.9292],[0.9661,52.9744],[0.5696,52.9693],[0.4857,52.9335],[0.3792,52.7908],[0.2468,52.7957],[0.1709,52.8621],[0.0221,52.9126],[0.1608,53.009],[0.3298,53.0865],[0.3421,53.2263],[0.2195,53.4195],[-0.0466,53.5704],[-0.1886,53.6204],[0.1335,53.6426],[-0.1511,53.8993],[-0.2195,54.0228],[-0.1114,54.1316],[-0.2339,54.1605],[-0.2771,54.2178],[-0.3976,54.2692],[-0.4306,54.3493],[-0.563,54.4774],[-0.7879,54.5608],[-1.1036,54.6247],[-1.2755,54.7484],[-1.3558,54.9043],[-1.5179,55.1571],[-1.9032,55.1951],[-2.3062,55.3053],[-2.5356,55.3016],[-2.706,55.2587],[-2.8502,55.1258],[-3.0463,54.9821]]],[[[-4.2801,53.155],[-4.1955,53.2203],[-4.2032,53.2985],[-4.2767,53.401],[-4.4254,53.4267],[-4.5535,53.4006],[-4.571,53.2755],[-4.496,53.1826],[-4.3439,53.1321],[-4.2801,53.155]]],[[[-4.7277,54.1726],[-4.7709,54.0968],[-4.6564,54.0638],[-4.3908,54.1947],[-4.3119,54.2872],[-4.442,54.4044],[-4.531,54.3661],[-4.5984,54.2766],[-4.7277,54.1726]]],[[[-6.8221,34.0396],[-6.6344,33.9699],[-6.3076,33.9021],[-5.706,33.8034],[-4.9781,33.7416],[-4.6587,33.6922],[-4.3245,33.6798],[-4.0645,33.6551],[-3.3441,33.6798],[-2.9653,33.7355],[-2.3265,33.7663],[-1.2049,33.8897],[-0.3508,34.0807],[0.6891,34.2773],[1.9814,34.4796],[2.6722,34.5224],[3.0361,34.5897],[3.2887,34.6997],[3.5189,34.8217],[3.5932,34.9375],[3.9572,35.041],[4.128,35.0531],[4.3062,35.047],[4.3954,35.0227],[4.5291,35.0227],[4.6702,34.9923],[4.9747,34.901],[5.3238,34.7363],[5.7026,34.5285],[6.0146,34.2159],[6.7202,34.0006],[7.1584,33.8712],[7.9309,33.7972],[8.3468,33.6242],[8.7033,33.4261],[9.3866,33.0782],[9.862,32.5789],[10.5156,32.0265],[11.1692,31.8247],[11.6149,31.6479],[12.1794,31.2423],[12.8033,31.0134],[13.2192,30.9115],[13.6649,30.7585],[14.0808,30.554],[14.9895,30.1374],[19.2875,30.1374],[19.2875,30.286],[19.0568,30.2662],[18.926,30.2934],[18.7805,30.3759],[18.6532,30.4223],[18.5684,30.5001],[18.3242,30.6569],[18.1753,30.7861],[17.9268,30.8552],[17.8486,30.9237],[17.6917,30.9597],[17.4668,31.03],[17.3659,31.0866],[17.1603,31.1188],[16.9419,31.1833],[16.728,31.2238],[16.3587,31.2271],[16.0446,31.2755],[15.7615,31.3881],[15.6228,31.4973],[15.4904,31.6649],[15.3705,31.9294],[15.3552,32.0385],[15.3705,32.1591],[15.2831,32.3173],[15.196,32.3898],[14.9111,32.4439],[14.7268,32.4508],[14.6316,32.4957],[14.4695,32.519],[14.1755,32.7177],[13.9912,32.7446],[13.7871,32.7996],[13.5715,32.8028],[13.3517,32.9042],[13.1647,32.9127],[13.0745,32.8664],[12.8244,32.8043],[12.7298,32.7986],[12.3483,32.8327],[12.1224,32.9213],[12.0807,32.9578],[11.847,33.0828],[11.6358,33.1087],[11.575,33.1579],[11.4424,33.2047],[11.3722,33.1838],[11.2454,33.2179],[11.1795,33.2111],[11.1218,33.28],[11.1707,33.3318],[11.0899,33.4541],[11.1082,33.5496],[10.9779,33.6431],[10.9065,33.6164],[10.9094,33.5396],[10.7805,33.4857],[10.7171,33.4835],[10.6741,33.5456],[10.7369,33.6029],[10.7166,33.7069],[10.4893,33.6471],[10.3303,33.7028],[10.1631,33.8362],[10.0488,33.9835],[10.0052,34.1706],[10.1267,34.3256],[10.3787,34.4231],[10.4319,34.4963],[10.597,34.5447],[10.6253,34.6332],[10.7012,34.656],[10.8563,34.8309],[10.9163,34.8736],[10.9177,34.9574],[11.0181,35.0342],[11.0159,35.0928],[11.1116,35.2056],[11.0422,35.3344],[11.0577,35.4867],[11.0239,35.5338],[11.012,35.6579],[10.8412,35.6988],[10.8414,35.7665],[10.6937,35.7878],[10.6086,35.8559],[10.5186,35.98],[10.4795,36.0793],[10.4793,36.217],[10.5191,36.3375],[10.6204,36.3903],[10.7999,36.4519],[10.8795,36.5885],[11.0221,36.7883],[11.1168,36.8384],[11.0127,37.0848],[10.7335,36.8958],[10.5669,36.8632],[10.5382,36.772],[10.437,36.7288],[10.3201,36.7488],[10.2721,36.8161],[10.3472,36.8803],[10.2201,36.9766],[10.1616,37.1343],[10.1463,37.2365],[10.0513,37.2666],[9.8159,37.1518],[9.7718,37.2133],[9.8617,37.2712],[9.8589,37.3288],[9.6663,37.3354],[9.3425,37.2353],[9.2107,37.2338],[8.9876,37.1168],[8.9037,37.0217],[8.802,36.9731],[8.6921,36.9694],[8.4976,36.9042],[8.2881,36.9259],[8.2332,36.9581],[8.05,36.8776],[7.9085,36.8496],[7.7734,36.89],[7.7127,36.9632],[7.5889,36.9876],[7.4902,37.055],[7.3835,37.083],[7.2748,37.0693],[7.239,36.9715],[7.157,36.9147],[7.0923,36.9259],[6.9094,36.8931],[6.822,36.9526],[6.6712,36.9594],[6.5833,36.9898],[6.5442,37.0588],[6.4624,37.0939],[6.3387,37.0693],[6.2544,36.999],[6.197,36.9023],[6.0371,36.8536],[5.8688,36.8229],[5.7588,36.8334],[5.5762,36.7614],[5.4649,36.6652],[5.3044,36.643],[5.1184,36.6994],[5.1048,36.7813],[4.7871,36.8954],[4.5041,36.8893],[4.4407,36.9116],[4.1048,36.8837],[3.8275,36.9129],[3.7419,36.8912],[3.6497,36.824],[3.4607,36.7751],[3.3405,36.7807],[3.2378,36.8131],[3.1794,36.7428],[3.1018,36.7519],[3.0142,36.8117],[2.9331,36.8086],[2.8187,36.7109],[2.633,36.6051],[2.457,36.5895],[2.3098,36.6305],[2.0599,36.5701],[1.9138,36.5702],[1.4528,36.528],[1.3467,36.545],[1.2883,36.5212],[1.0448,36.4869],[0.9363,36.4436],[0.8648,36.3774],[0.6633,36.3326],[0.4513,36.2232],[0.3423,36.206],[0.3293,36.165],[0.1273,36.0508],[0.0345,35.8633],[-0.1239,35.7869],[-0.2594,35.8175],[-0.3485,35.907],[-0.477,35.8594],[-0.5234,35.7797],[-0.6826,35.7174],[-0.825,35.7685],[-0.8994,35.7118],[-1.0329,35.6826],[-1.1903,35.5661],[-1.2677,35.3903],[-1.3959,35.3094],[-1.5104,35.2955],[-1.7611,35.1296],[-2.0524,35.075],[-2.2226,35.0893],[-2.4167,35.1492],[-2.5632,35.0961],[-2.7611,35.1433],[-2.882,35.1467],[-2.899,35.26],[-2.963,35.3735],[-3.1951,35.2382],[-3.4129,35.1979],[-3.591,35.2333],[-3.6736,35.2879],[-3.7648,35.2185],[-3.9039,35.2142],[-3.9613,35.2504],[-4.376,35.1518],[-4.7705,35.241],[-5.0663,35.4175],[-5.1508,35.5161],[-5.2494,35.5846],[-5.3226,35.7138],[-5.3457,35.8326],[-5.2919,35.8905],[-5.4481,35.9185],[-5.599,35.8223],[-5.7117,35.8306],[-5.7814,35.7909],[-5.9272,35.7807],[-6.0239,35.5012],[-6.2054,35.1246],[-6.2921,34.8808],[-6.5579,34.4177],[-6.6678,34.2805],[-6.8221,34.0396]]],[[[1.4147,38.8906],[1.5098,38.9302],[1.6231,39.0292],[1.5371,39.118],[1.3568,39.0776],[1.2928,39.0333],[1.2122,38.9032],[1.2599,38.8579],[1.4147,38.8906]]],[[[8.406,38.9669],[8.4634,39.0425],[8.3493,39.0622],[8.406,38.9669]]],[[[3.406,39.592],[3.4685,39.7393],[3.3545,39.7844],[3.2925,39.7497],[3.1626,39.7691],[3.1248,39.8111],[3.1409,39.9281],[2.9333,39.9145],[2.7039,39.8142],[2.5697,39.7131],[2.3577,39.6119],[2.3821,39.5292],[2.4539,39.5374],[2.4927,39.4702],[2.6553,39.5647],[2.7549,39.5026],[2.7617,39.4002],[2.8255,39.3636],[2.9588,39.3632],[3.0608,39.2691],[3.221,39.3599],[3.2825,39.4201],[3.3233,39.5239],[3.406,39.592]]],[[[3.8391,39.9756],[3.8693,39.9255],[4.0151,39.9258],[4.2481,39.8165],[4.3073,39.9105],[4.2546,39.9975],[4.1078,40.0676],[3.8219,40.0476],[3.8391,39.9756]]],[[[9.6346,40.2826],[9.7494,40.3773],[9.8267,40.5196],[9.7532,40.6053],[9.7445,40.6805],[9.6618,40.809],[9.6831,40.8654],[9.5733,40.9064],[9.5876,40.9958],[9.5431,41.0369],[9.5462,41.1209],[9.2306,41.2626],[9.1711,41.2429],[9.1576,41.1689],[9.0248,41.1289],[8.8396,40.9616],[8.7644,40.9138],[8.641,40.8965],[8.5205,40.827],[8.3102,40.8507],[8.2332,40.9101],[8.1338,40.7289],[8.1921,40.6942],[8.1406,40.6252],[8.2163,40.5706],[8.312,40.5781],[8.3945,40.4238],[8.386,40.3518],[8.4629,40.3145],[8.4596,40.216],[8.49,40.1045],[8.4014,40.0499],[8.3983,39.9053],[8.4942,39.9124],[8.5552,39.8527],[8.5068,39.7385],[8.444,39.757],[8.4634,39.5768],[8.3869,39.4698],[8.4264,39.2833],[8.3718,39.2306],[8.5044,39.0629],[8.5596,39.0567],[8.5801,38.9605],[8.6428,38.89],[8.7166,38.9326],[8.8415,38.8806],[9.0183,38.9953],[9.0449,39.0513],[9.0183,39.1461],[9.0789,39.2123],[9.166,39.1871],[9.2525,39.2252],[9.3451,39.1964],[9.4504,39.1244],[9.5578,39.1397],[9.5676,39.2381],[9.6449,39.484],[9.6489,39.639],[9.6966,39.8519],[9.6934,39.9929],[9.7323,40.0839],[9.6546,40.1446],[9.6346,40.2826]]],[[[8.6887,42.281],[8.5863,42.2434],[8.5658,42.1745],[8.738,42.0439],[8.6646,42.0145],[8.6143,41.9008],[8.7444,41.9328],[8.8054,41.9069],[8.6956,41.7294],[8.8992,41.6955],[8.7781,41.5916],[8.9357,41.4892],[9.1052,41.4455],[9.0964,41.4035],[9.2232,41.3725],[9.2107,41.4409],[9.2647,41.5308],[9.3411,41.5693],[9.3333,41.6245],[9.4016,41.7064],[9.4032,41.9529],[9.5527,42.113],[9.5596,42.2946],[9.5322,42.3737],[9.5281,42.5635],[9.4566,42.6064],[9.4504,42.7089],[9.4844,42.8324],[9.4224,43.0174],[9.3418,42.9907],[9.3602,42.9286],[9.3057,42.8393],[9.3425,42.7491],[9.2368,42.7226],[9.1071,42.7259],[9.0183,42.6501],[8.8128,42.5996],[8.6675,42.5097],[8.6128,42.3524],[8.6887,42.281]]],[[[19.2875,41.9022],[19.2875,45.2375],[19.1062,45.2979],[18.9937,45.4854],[18.8896,45.5687],[18.9646,45.6646],[18.8479,45.8021],[18.8562,45.8562],[18.6854,46.0062],[18.8396,46.1479],[18.9021,46.1687],[18.9229,46.3104],[18.8854,46.4021],[18.9229,46.4521],[18.8604,46.5979],[19.0104,46.6979],[18.9229,46.8229],[18.9604,46.9021],[18.9688,47.0272],[18.8937,47.0854],[18.8729,47.1604],[18.9187,47.2896],[19.0687,47.4729],[19.0437,47.5104],[19.1021,47.6146],[19.1312,47.7604],[19.0521,47.8187],[18.7521,47.8187],[18.6729,47.7604],[18.5396,47.7646],[18.2979,47.7312],[18.1021,47.7562],[17.8271,47.7396],[17.7104,47.7562],[17.5229,47.8687],[17.4562,47.8854],[17.3521,47.9812],[17.2521,48.0021],[17.1271,48.1396],[16.9771,48.1729],[16.8229,48.1187],[16.5521,48.1396],[16.4021,48.2312],[16.3271,48.3354],[16.2146,48.3521],[15.9396,48.3396],[15.8437,48.3812],[15.4812,48.4021],[15.4062,48.3479],[15.4062,48.2896],[15.3146,48.2271],[15.0604,48.1979],[14.8771,48.2312],[14.8354,48.1896],[14.6854,48.1646],[14.5812,48.2271],[14.4562,48.2354],[14.1771,48.3312],[14.0354,48.3312],[13.9937,48.4187],[13.8604,48.4271],[13.7271,48.5146],[13.5271,48.5896],[13.4729,48.5771],[13.2562,48.6062],[13.1187,48.6646],[12.9646,48.8229],[12.7896,48.8271],[12.6771,48.9062],[12.5437,48.8979],[12.3187,49.0146],[12.0562,49.0312],[11.9646,48.9062],[11.7937,48.8896],[11.739,48.8145],[11.6396,48.7729],[11.4104,48.7479],[11.0979,48.7312],[10.8979,48.7396],[10.7812,48.7146],[10.6187,48.6104],[10.4396,48.5729],[10.3771,48.4937],[10.2729,48.4562],[10.0437,48.4312],[9.9854,48.3812],[10.0646,48.2854],[10.1396,48.1021],[10.1104,47.9771],[10.1896,47.8479],[10.3229,47.7312],[10.3229,47.6687],[10.2396,47.5715],[9.9915,47.5715],[9.7293,47.5007],[9.3396,47.6271],[9.0729,47.6812],[8.9021,47.6479],[8.7437,47.6937],[8.6312,47.6937],[8.5729,47.5687],[8.3229,47.5729],[8.2896,47.6104],[8.1146,47.5854],[8.0896,47.5562],[7.9146,47.5479],[7.8896,47.5896],[7.6687,47.5354],[7.5187,47.6687],[7.5562,47.8771],[7.6229,47.9687],[7.6021,48.0062],[7.5771,48.1229],[7.7479,48.3312],[7.7604,48.4562],[7.8021,48.5854],[7.8146,48.6021],[7.8729,48.6562],[7.9562,48.7146],[8.0521,48.7896],[8.1646,48.9187],[8.2521,48.9771],[8.3062,49.0396],[8.3646,49.1271],[8.3729,49.1771],[8.4521,49.3187],[8.5021,49.3729],[8.3728,49.6475],[8.3646,49.6646],[8.4354,49.7187],[8.3437,49.8812],[8.3437,49.9521],[8.0892,50.1621],[7.85,50.3255],[7.3944,50.6051],[7.2745,50.563],[7.2104,50.6562],[7.0312,50.8104],[6.9771,50.9146],[6.9521,51.0396],[6.8562,51.0812],[6.8521,51.1354],[6.7437,51.1812],[6.7062,51.2771],[6.7437,51.4062],[6.6896,51.4729],[6.6854,51.5687],[6.6062,51.5687],[6.5812,51.6604],[6.4979,51.6604],[6.2646,51.8229],[6.0396,51.8729],[5.8979,51.9812],[5.7052,51.9699],[5.2792,52.0586],[4.8073,52.0707],[4.2847,52.1129],[4.1419,52.0056],[4.01,51.9801],[4.0402,51.9241],[4.0339,51.7842],[4.118,51.6307],[3.9881,51.5903],[4.0672,51.544],[4.2398,51.5185],[4.2832,51.4477],[4.1288,51.4414],[4.0571,51.5084],[3.8289,51.6127],[3.5604,51.5946],[3.4575,51.5551],[3.5354,51.4592],[3.6897,51.4543],[3.8272,51.3911],[3.9431,51.4504],[4.1111,51.407],[4.2449,51.4145],[4.2411,51.3566],[3.9558,51.3718],[3.7555,51.3501],[3.5414,51.4167],[3.1248,51.3297],[2.4661,51.0688],[1.9735,51.0071],[1.7298,50.9439],[1.5806,50.8688],[1.6056,50.79],[1.5632,50.6783],[1.5735,50.4454],[1.521,50.2147],[1.3913,50.0752],[1.1726,49.961],[0.7609,49.8751],[0.6748,49.8758],[0.2359,49.7293],[0.1709,49.6916],[0.0797,49.5422],[0.1044,49.4936],[0.2568,49.4641],[0.072,49.3593],[-0.2195,49.2801],[-0.4111,49.3428],[-0.5469,49.359],[-0.8221,49.3627],[-1.0723,49.3968],[-1.1229,49.3454],[-1.3063,49.5581],[-1.2322,49.6414],[-1.2711,49.6984],[-1.3913,49.7127],[-1.5973,49.6523],[-1.8118,49.6907],[-1.8695,49.6617],[-1.8437,49.5718],[-1.8847,49.5309],[-1.8196,49.3968],[-1.7148,49.3385],[-1.6104,49.2159],[-1.5968,49.0374],[-1.5458,49.0303],[-1.5718,48.8742],[-1.5536,48.7471],[-1.508,48.7016],[-1.5797,48.6433],[-1.7228,48.6153],[-1.8382,48.6238],[-1.8437,48.7121],[-1.977,48.6911],[-2.2192,48.6037],[-2.3125,48.687],[-2.5771,48.5825],[-2.6363,48.5388],[-2.813,48.5986],[-2.827,48.6575],[-3.0771,48.8283],[-3.0915,48.8713],[-3.3718,48.8225],[-3.5153,48.8419],[-3.5428,48.7457],[-3.614,48.6827],[-3.7319,48.719],[-3.9495,48.6693],[-3.974,48.7328],[-4.1739,48.6911],[-4.2831,48.6433],[-4.3433,48.6789],[-4.5636,48.6296],[-4.722,48.5682],[-4.7646,48.5202],[-4.7834,48.3764],[-4.6189,48.3485],[-4.4265,48.4037],[-4.3247,48.3627],[-4.2694,48.2884],[-4.4265,48.3],[-4.4576,48.249],[-4.3024,48.1964],[-4.3619,48.1157],[-4.6837,48.0673],[-4.4346,47.9757],[-4.3473,47.8629],[-4.3718,47.8072],[-4.2252,47.8024],[-4.0944,47.8755],[-3.8945,47.8553],[-3.8517,47.801],[-3.5245,47.7724],[-3.4607,47.7076],[-3.3451,47.7213],[-3.0738,47.5765],[-2.7582,47.6391],[-2.7414,47.5513],[-2.5017,47.5267],[-2.4768,47.4157],[-2.5564,47.3832],[-2.4049,47.2864],[-2.2784,47.2464],[-2.2063,47.2734],[-2.1652,47.1679],[-1.9926,47.0523],[-2.1022,46.9307],[-2.1188,46.82],[-2.0503,46.7921],[-1.8574,46.6353],[-1.8048,46.5036],[-1.5988,46.425],[-1.5045,46.4193],[-1.4487,46.3434],[-1.3702,46.3542],[-1.2401,46.2842],[-1.1772,46.3262],[-1.1107,46.2592],[-1.1796,46.2295],[-1.1505,46.1533],[-1.0487,46.0388],[-1.0966,45.9854],[-1.0734,45.9044],[-1.1517,45.8682],[-1.1254,45.8077],[-1.2303,45.7924],[-1.1942,45.7102],[-1.0838,45.6604],[-1.0303,45.6229],[-0.8418,45.5146],[-0.753,45.4241],[-0.7662,45.3261],[-0.9153,45.4504],[-1.0592,45.527],[-1.14,45.4901],[-1.1579,45.2791],[-1.1995,45.1208],[-1.2336,44.7069],[-1.1654,44.7787],[-1.0653,44.7175],[-1.065,44.6591],[-1.1865,44.6655],[-1.2572,44.5561],[-1.2473,44.5045],[-1.2816,44.3022],[-1.3461,44.0192],[-1.4769,43.5801],[-1.5968,43.4425],[-1.661,43.3997],[-1.8113,43.3951],[-1.8849,43.356],[-2.0989,43.3041],[-2.3674,43.3157],[-2.4835,43.3706],[-2.7558,43.4503],[-2.9301,43.4379],[-3.0293,43.3721],[-3.1124,43.3541],[-3.47,43.4542],[-3.5544,43.5169],[-3.7179,43.4827],[-3.8267,43.497],[-4.1886,43.4054],[-4.3856,43.3836],[-4.4325,43.4026],[-4.7349,43.4171],[-4.8365,43.4498],[-5.1779,43.4894],[-5.284,43.5335],[-5.3724,43.5202],[-5.4242,43.5611],[-5.7089,43.5686],[-5.8522,43.6629],[-5.9074,43.5884],[-6.0692,43.5697],[-6.2228,43.5959],[-6.5101,43.5475],[-6.6487,43.579],[-6.7708,43.5686],[-7.2301,43.5686],[-7.3041,43.5986],[-7.3671,43.6801],[-7.5414,43.7316],[-7.7738,43.7426],[-8.0593,43.7094],[-8.0867,43.6565],[-8.3082,43.5463],[-8.3331,43.4715],[-8.2133,43.425],[-8.443,43.3753],[-8.506,43.3315],[-8.6931,43.2934],[-8.8412,43.3389],[-8.9709,43.2866],[-9.0524,43.1964],[-9.1379,43.2015],[-9.2176,43.1553],[-9.251,43.0168],[-9.2242,42.9402],[-9.1414,42.9214],[-9.1134,42.7661],[-8.9774,42.7923],[-9.0709,42.5961],[-8.9808,42.5512],[-8.9034,42.6255],[-8.823,42.5695],[-8.8129,42.5028],[-8.935,42.4791],[-8.8675,42.4147],[-8.7958,42.2582],[-8.8986,42.1018],[-8.8675,41.8591],[-8.8803,41.7369],[-8.8286,41.6482],[-8.7748,41.4683],[-8.7838,41.3939],[-8.7372,41.2497],[-8.6661,41.1328],[-8.6551,40.9938],[-8.7006,40.778],[-8.6416,40.6942],[-8.7658,40.5825],[-8.8654,40.2755],[-8.9084,40.2007],[-8.8682,40.1248],[-9.0717,39.6804],[-9.0904,39.5793],[-9.2403,39.42],[-9.3529,39.3679],[-9.3509,39.1973],[-9.4366,39.0295],[-9.4227,38.9314],[-9.4919,38.8192],[-9.4917,38.7076],[-9.3218,38.6703],[-9.1125,38.7142],[-9.1066,38.8138],[-9.0115,38.9134],[-8.9426,38.7817],[-9.0524,38.6937],[-9.2527,38.6655],[-9.1838,38.5515],[-9.2004,38.4125],[-9.0486,38.4407],[-8.9058,38.5124],[-8.7951,38.3592],[-8.7744,38.1869],[-8.8675,37.9736],[-8.7972,37.8449],[-8.7993,37.6976],[-8.8265,37.6006],[-8.7979,37.4896],[-8.8387,37.3603],[-8.8828,37.3099],[-8.8814,37.2325],[-8.9856,37.0634],[-8.8789,37.0472],[-8.6268,37.1212],[-8.4388,37.0827],[-8.1792,37.0881],[-7.9814,37.0017],[-7.7866,37.0227],[-7.5118,37.1718],[-7.3279,37.2016],[-7.0294,37.2055],[-6.7449,37.1014],[-6.4996,36.9597],[-6.4148,36.8738],[-6.3622,36.8994],[-6.4251,36.979],[-6.4526,37.1114],[-6.3771,37.1561],[-6.1848,37.1981],[-6.0543,37.2063],[-5.9628,37.137],[-5.933,37.0402],[-6.2157,36.8948],[-6.2592,36.7913],[-6.3176,36.806],[-6.4333,36.7512],[-6.3947,36.6369],[-6.2349,36.5758],[-6.2184,36.4025],[-6.1595,36.3043],[-6.1047,36.2807],[-6.0368,36.1895],[-5.9172,36.1841],[-5.7961,36.0855],[-5.6297,36.0368],[-5.6118,36.0065],[-5.4455,36.0574],[-5.4379,36.1615],[-5.3341,36.1878],[-5.1866,36.4112],[-4.9942,36.4571],[-4.9027,36.5065],[-4.7228,36.493],[-4.5248,36.5807],[-4.4333,36.7107],[-4.2247,36.7124],[-4.0567,36.748],[-3.961,36.7268],[-3.8385,36.752],[-3.7313,36.7241],[-3.6011,36.7426],[-3.4152,36.6955],[-3.3296,36.7449],[-3.2279,36.7548],[-2.9877,36.7371],[-2.9333,36.7517],[-2.7567,36.6804],[-2.6589,36.6948],[-2.5769,36.8113],[-2.3617,36.8368],[-2.2828,36.8101],[-2.2036,36.7371],[-2.0712,36.7753],[-2.0028,36.887],[-1.8987,36.9501],[-1.8127,37.2071],[-1.6709,37.3633],[-1.4884,37.4332],[-1.4709,37.4822],[-1.3237,37.562],[-1.2427,37.5792],[-1.1671,37.5438],[-1.0699,37.5826],[-0.9252,37.5559],[-0.7053,37.6195],[-0.8099,37.6669],[-0.8526,37.7238],[-0.7184,37.943],[-0.6545,37.9893],[-0.645,38.116],[-0.6095,38.178],[-0.504,38.2072],[-0.5188,38.2987],[-0.4137,38.3648],[-0.3294,38.47],[-0.2021,38.5196],[-0.0902,38.5353],[-0.0148,38.6244],[0.083,38.661],[0.2341,38.7579],[0.154,38.831],[-0.0098,38.8697],[-0.1207,38.9511],[-0.21,39.0787],[-0.2155,39.1818],[-0.3013,39.322],[-0.3234,39.5162],[-0.2089,39.6641],[-0.1945,39.7154],[-0.0029,39.932],[0.0662,40.0319],[0.1445,40.0788],[0.2053,40.1715],[0.3506,40.2849],[0.5485,40.5723],[0.5998,40.6137],[0.7142,40.8152],[0.8228,40.8996],[0.8775,40.9548],[1.0557,41.0649],[1.1836,41.0626],[1.2178,41.1047],[1.5392,41.1874],[2.0603,41.2746],[2.1305,41.3037],[2.2967,41.4653],[2.4495,41.5352],[2.7785,41.6456],[3.1502,41.8454],[3.2357,41.9655],[3.2145,42.0683],[3.1225,42.1405],[3.1516,42.2568],[3.263,42.2399],[3.3177,42.323],[3.1745,42.3638],[3.1759,42.4565],[3.1374,42.5249],[3.0518,42.5549],[3.0376,42.6832],[3.0561,42.9071],[3.039,42.9428],[3.114,43.1063],[3.2443,43.2194],[3.3854,43.2839],[3.5134,43.2811],[3.6222,43.3749],[3.7399,43.4128],[3.9393,43.5325],[4.1053,43.5519],[4.1328,43.487],[4.2059,43.4599],[4.513,43.4558],[4.5663,43.3711],[4.6659,43.3475],[4.8203,43.3464],[4.9285,43.4401],[5.0276,43.417],[5.0223,43.5522],[5.2136,43.4578],[5.0571,43.4221],[5.0648,43.328],[5.3389,43.3343],[5.347,43.2159],[5.5378,43.2074],[5.7761,43.1308],[6.027,43.0782],[6.2804,43.1187],[6.3423,43.0908],[6.422,43.1523],[6.5057,43.151],[6.6798,43.2016],[6.6724,43.2762],[6.7311,43.4078],[6.894,43.4276],[6.9756,43.5469],[7.0884,43.5687],[7.1516,43.6548],[7.3305,43.6864],[7.3807,43.7193],[7.3982,43.7183],[7.4043,43.718],[7.5023,43.7922],[7.695,43.7912],[7.9597,43.8529],[8.1447,43.9526],[8.2332,44.1036],[8.4082,44.1935],[8.4661,44.3043],[8.7624,44.4321],[9.2306,44.3537],[9.4844,44.2438],[9.6211,44.1483],[9.7718,44.0794],[9.8447,44.1086],[9.9627,44.0447],[10.1058,44.0168],[10.2101,43.9202],[10.264,43.8094],[10.2948,43.5685],[10.3263,43.4769],[10.437,43.3886],[10.5169,43.2668],[10.5466,43.1471],[10.4995,42.9405],[10.6814,42.949],[10.7777,42.8947],[10.7313,42.8044],[10.8909,42.7639],[10.99,42.7103],[11.1869,42.5208],[11.1642,42.4398],[11.3766,42.4069],[11.5391,42.3489],[11.6582,42.2794],[11.8275,42.0342],[11.9168,42.0379],[12.1475,41.9035],[12.239,41.7363],[12.3428,41.7023],[12.448,41.6308],[12.6194,41.4591],[12.8936,41.3993],[12.9795,41.331],[13.0446,41.2275],[13.2048,41.2838],[13.3244,41.2948],[13.5144,41.2297],[13.7219,41.2524],[13.8517,41.1473],[14.0213,40.9218],[14.0523,40.8376],[14.2035,40.8012],[14.2942,40.8388],[14.4741,40.7297],[14.3797,40.6339],[14.5442,40.6136],[14.7522,40.6767],[14.8888,40.5731],[14.9983,40.3976],[14.9324,40.3337],[14.9111,40.2416],[15.0349,40.1754],[15.1272,40.1696],[15.2634,40.0737],[15.2831,40.0299],[15.4101,39.994],[15.5349,40.0778],[15.6102,40.0732],[15.728,39.9642],[15.7819,39.8686],[15.8064,39.6955],[15.8675,39.5639],[15.9954,39.4388],[16.034,39.3452],[16.083,39.0753],[16.1543,38.955],[16.2201,38.8991],[16.2151,38.8142],[16.1209,38.7209],[16.0026,38.7254],[15.8445,38.6604],[15.9001,38.5783],[15.9048,38.4739],[15.7865,38.278],[15.6506,38.241],[15.6275,38.1074],[15.6658,37.9669],[15.7615,37.9252],[16.09,37.9492],[16.1694,38.1432],[16.3399,38.3008],[16.4671,38.3487],[16.5696,38.4295],[16.577,38.5286],[16.5388,38.7233],[16.6106,38.8166],[16.8386,38.9182],[16.9813,38.9372],[17.022,38.906],[17.1277,38.9288],[17.1724,39.0052],[17.1245,39.0909],[17.1457,39.2107],[17.1222,39.3383],[17.1587,39.4062],[17.0115,39.4862],[16.8462,39.5527],[16.7498,39.62],[16.6248,39.6253],[16.5156,39.6896],[16.4917,39.8055],[16.6316,39.9662],[16.6047,40.0845],[16.7376,40.211],[16.7827,40.3016],[16.9121,40.4452],[17.0496,40.5191],[17.2474,40.5028],[17.2129,40.4062],[17.5121,40.3037],[17.8477,40.29],[17.9128,40.2553],[17.926,40.1763],[17.9972,40.1204],[18.0073,39.9861],[18.0715,39.9115],[18.2113,39.8393],[18.384,39.8139],[18.3926,39.9161],[18.4341,40.0225],[18.5174,40.1142],[18.4373,40.2679],[18.2383,40.4577],[18.0374,40.557],[18.007,40.6507],[17.8439,40.6942],[17.7484,40.7476],[17.4761,40.8301],[17.2764,40.9802],[17.0571,41.0819],[16.5939,41.207],[16.3014,41.3279],[16.0217,41.4278],[15.9118,41.5029],[15.8914,41.5768],[15.9253,41.64],[16.0275,41.6799],[16.1929,41.7909],[16.1405,41.9199],[16.0271,41.9441],[15.7744,41.9212],[15.6113,41.928],[15.4461,41.9069],[15.1234,41.9343],[14.9937,42.0106],[14.8711,42.0318],[14.7407,42.0846],[14.7171,42.1601],[14.5602,42.2257],[14.3874,42.373],[14.2206,42.4702],[14.0754,42.5988],[13.9447,42.7983],[13.8348,43.1273],[13.617,43.5313],[13.4734,43.612],[13.2533,43.7032],[12.9473,43.8976],[12.804,43.9669],[12.7103,43.9829],[12.4788,44.1393],[12.3688,44.2507],[12.2837,44.4876],[12.2858,44.6027],[12.2536,44.7513],[12.2923,44.8432],[12.3757,44.7922],[12.4446,44.8205],[12.527,44.9433],[12.3762,45.039],[12.3285,45.101],[12.2961,45.2266],[12.1688,45.2622],[12.259,45.3952],[12.2727,45.4636],[12.4419,45.5303],[12.4878,45.4567],[12.7808,45.5535],[12.9439,45.6286],[13.085,45.6419],[13.0696,45.7137],[13.1314,45.7689],[13.5078,45.7144],[13.5513,45.7924],[13.7262,45.7038],[13.7956,45.617],[13.7529,45.5529],[13.5071,45.5119],[13.5134,45.4362],[13.5957,45.2405],[13.596,45.1454],[13.6438,45.0705],[13.7741,44.9638],[13.86,44.8257],[13.9727,44.8266],[14.0757,44.9837],[14.1637,44.9958],[14.1541,45.072],[14.2326,45.1494],[14.272,45.2901],[14.3298,45.354],[14.5105,45.2998],[14.6579,45.1966],[14.8274,45.114],[14.9216,44.9588],[14.8838,44.8615],[14.9014,44.6902],[15.0013,44.5785],[15.0801,44.5361],[15.308,44.3544],[15.2817,44.2854],[15.1576,44.2803],[15.1445,44.1955],[15.3581,44.0257],[15.4661,43.9217],[15.9312,43.6765],[15.918,43.5933],[15.9837,43.5211],[16.0985,43.48],[16.1507,43.5114],[16.3368,43.5512],[16.4338,43.5498],[16.6258,43.449],[16.8806,43.406],[17.0735,43.239],[17.3163,43.1273],[17.4407,43.0323],[17.3905,42.9777],[17.2402,43.0228],[17.2019,42.9843],[17.4404,42.8734],[17.7288,42.8008],[17.8067,42.8119],[18.0479,42.6906],[18.076,42.6513],[18.2175,42.6201],[18.2389,42.5591],[18.6167,42.3681],[18.6958,42.3738],[18.7786,42.2715],[18.8716,42.2905],[18.9133,42.2222],[19.1392,42.0424],[19.1703,41.938],[19.2875,41.9022]]],[[[3.7654,51.6784],[3.7959,51.7001],[3.978,51.6233],[4.089,51.644],[3.9396,51.7412],[3.8101,51.7473],[3.7654,51.6784]]],[[[10.8937,33.6582],[11.0603,33.8007],[10.9299,33.8963],[10.736,33.8848],[10.7402,33.7155],[10.8089,33.7343],[10.8937,33.6582]]],[[[14.3426,35.9117],[14.4245,35.8237],[14.5275,35.8012],[14.5671,35.8456],[14.5078,35.9285],[14.4285,35.9657],[14.3426,35.9117]]],[[[15.2835,37.833],[15.3926,37.9761],[15.5003,38.0849],[15.5838,38.2404],[15.5129,38.2976],[15.3997,38.2326],[15.2454,38.2172],[15.1774,38.1563],[15.0879,38.1282],[14.9071,38.1877],[14.7337,38.1576],[14.6346,38.0815],[14.5117,38.0444],[14.4319,38.0494],[14.2732,38.0151],[14.1063,38.0214],[14.0205,38.0494],[13.7908,37.9736],[13.6511,38.001],[13.5474,38.0562],[13.5135,38.1105],[13.3914,38.1032],[13.3719,38.1728],[13.3102,38.2195],[13.2072,38.1761],[13.1009,38.1901],[13.0274,38.0624],[12.9011,38.0281],[12.7254,38.1259],[12.5763,38.0717],[12.5042,38.0112],[12.427,37.797],[12.489,37.6827],[12.5947,37.6379],[12.6978,37.5627],[12.9426,37.5685],[13.0515,37.5007],[13.1741,37.487],[13.278,37.3937],[13.4526,37.2988],[13.5692,37.2735],[13.6834,37.1894],[13.8944,37.1008],[14.0886,37.1177],[14.2788,37.044],[14.3945,36.945],[14.4873,36.7934],[14.6589,36.7538],[14.7808,36.6994],[14.8822,36.7307],[15.0736,36.6591],[15.1349,36.6877],[15.094,36.7995],[15.1747,36.9441],[15.3294,37.0277],[15.1834,37.2075],[15.2175,37.285],[15.1107,37.3218],[15.0967,37.4945],[15.1638,37.5677],[15.2186,37.7181],[15.2835,37.833]]],[[[10.3773,42.728],[10.4367,42.8044],[10.3999,42.8688],[10.2659,42.8044],[10.1117,42.8013],[10.1472,42.7373],[10.3379,42.7648],[10.3773,42.728]]],[[[14.3836,44.7578],[14.4722,44.708],[14.4519,44.8509],[14.3015,44.9434],[14.3298,44.8339],[14.3836,44.7578]]],[[[16.6384,42.9348],[16.8514,42.9007],[16.9729,42.9267],[16.7205,42.9901],[16.6384,42.9348]]],[[[16.0488,43.0652],[16.0872,43.0115],[16.2103,43.0333],[16.1702,43.0877],[16.0488,43.0652]]],[[[16.4603,43.2098],[16.4452,43.1708],[16.6931,43.1273],[16.6595,43.216],[16.4603,43.2098]]],[[[16.4535,43.3941],[16.4219,43.3176],[16.6283,43.2637],[16.8462,43.2734],[16.8098,43.3532],[16.6877,43.377],[16.4535,43.3941]]],[[[15.0617,44.5007],[14.9041,44.61],[14.8452,44.6005],[14.9588,44.4667],[15.0967,44.34],[15.2544,44.34],[15.0833,44.4619],[15.0617,44.5007]]],[[[14.4416,45.0998],[14.4601,45.0524],[14.5907,45.0233],[14.7064,44.9467],[14.815,44.9775],[14.6653,45.0873],[14.6653,45.1618],[14.5633,45.2497],[14.514,45.1291],[14.4416,45.0998]]]]},"properties":{"Nombre":"Imperio Romano"}},
{"type":"Feature","geometry":{"type":"MultiPolygon","coordinates":[[[[-4.2801,53.155],[-4.1955,53.2203],[-4.2032,53.2985],[-4.2767,53.401],[-4.4254,53.4267],[-4.5535,53.4006],[-4.571,53.2755],[-4.496,53.1826],[-4.3439,53.1321],[-4.2801,53.155]]],[[[-4.7277,54.1726],[-4.7709,54.0968],[-4.6564,54.0638],[-4.3908,54.1947],[-4.3119,54.2872],[-4.442,54.4044],[-4.531,54.3661],[-4.5984,54.2766],[-4.7277,54.1726]]],[[[1.4147,38.8906],[1.5098,38.9302],[1.6231,39.0292],[1.5371,39.118],[1.3568,39.0776],[1.2928,39.0333],[1.2122,38.9032],[1.2599,38.8579],[1.4147,38.8906]]],[[[3.406,39.592],[3.4685,39.7393],[3.3545,39.7844],[3.2925,39.7497],[3.1626,39.7691],[3.1248,39.8111],[3.1409,39.9281],[2.9333,39.9145],[2.7039,39.8142],[2.5697,39.7131],[2.3577,39.6119],[2.3821,39.5292],[2.4539,39.5374],[2.4927,39.4702],[2.6553,39.5647],[2.7549,39.5026],[2.7617,39.4002],[2.8255,39.3636],[2.9588,39.3632],[3.0608,39.2691],[3.221,39.3599],[3.2825,39.4201],[3.3233,39.5239],[3.406,39.592]]],[[[3.8391,39.9756],[3.8693,39.9255],[4.0151,39.9258],[4.2481,39.8165],[4.3073,39.9105],[4.2546,39.9975],[4.1078,40.0676],[3.8219,40.0476],[3.8391,39.9756]]],[[[8.3646,49.6646],[8.4354,49.7187],[8.3437,49.8812],[8.3437,49.9521],[8.0892,50.1621],[7.85,50.3255],[7.3944,50.6051],[7.2745,50.563],[7.2104,50.6562],[7.0312,50.8104],[6.9771,50.9146],[6.9521,51.0396],[6.8562,51.0812],[6.8521,51.1354],[6.7437,51.1812],[6.7062,51.2771],[6.7437,51.4062],[6.6896,51.4729],[6.6854,51.5687],[6.6062,51.5687],[6.5812,51.6604],[6.4979,51.6604],[6.2646,51.8229],[6.0396,51.8729],[5.8979,51.9812],[5.7052,51.9699],[5.2792,52.0586],[4.8073,52.0707],[4.2847,52.1129],[4.1419,52.0056],[4.01,51.9801],[4.0402,51.9241],[4.0339,51.7842],[4.118,51.6307],[3.9881,51.5903],[4.0672,51.544],[4.2398,51.5185],[4.2832,51.4477],[4.1288,51.4414],[4.0571,51.5084],[3.8289,51.6127],[3.5604,51.5946],[3.4575,51.5551],[3.5354,51.4592],[3.6897,51.4543],[3.8272,51.3911],[3.9431,51.4504],[4.1111,51.407],[4.2449,51.4145],[4.2411,51.3566],[3.9558,51.3718],[3.7555,51.3501],[3.5414,51.4167],[3.1248,51.3297],[2.4661,51.0688],[1.9735,51.0071],[1.7298,50.9439],[1.5806,50.8688],[1.6056,50.79],[1.5632,50.6783],[1.5735,50.4454],[1.521,50.2147],[1.3913,50.0752],[1.1726,49.961],[0.7609,49.8751],[0.6748,49.8758],[0.2359,49.7293],[0.1709,49.6916],[0.0797,49.5422],[0.1044,49.4936],[0.2568,49.4641],[0.072,49.3593],[-0.2195,49.2801],[-0.4111,49.3428],[-0.5469,49.359],[-0.8221,49.3627],[-1.0723,49.3968],[-1.1229,49.3454],[-1.3063,49.5581],[-1.2322,49.6414],[-1.2711,49.6984],[-1.3913,49.7127],[-1.5973,49.6523],[-1.8118,49.6907],[-1.8695,49.6617],[-1.8437,49.5718],[-1.8847,49.5309],[-1.8196,49.3968],[-1.7148,49.3385],[-1.6104,49.2159],[-1.5968,49.0374],[-1.5458,49.0303],[-1.5718,48.8742],[-1.5536,48.7471],[-1.508,48.7016],[-1.5797,48.6433],[-1.7228,48.6153],[-1.8382,48.6238],[-1.8437,48.7121],[-1.977,48.6911],[-2.2192,48.6037],[-2.3125,48.687],[-2.5771,48.5825],[-2.6363,48.5388],[-2.813,48.5986],[-2.827,48.6575],[-3.0771,48.8283],[-3.0915,48.8713],[-3.3718,48.8225],[-3.5153,48.8419],[-3.5428,48.7457],[-3.614,48.6827],[-3.7319,48.719],[-3.9495,48.6693],[-3.974,48.7328],[-4.1739,48.6911],[-4.2831,48.6433],[-4.3433,48.6789],[-4.5636,48.6296],[-4.722,48.5682],[-4.7646,48.5202],[-4.7834,48.3764],[-4.6189,48.3485],[-4.4265,48.4037],[-4.3247,48.3627],[-4.2694,48.2884],[-4.4265,48.3],[-4.4576,48.249],[-4.3024,48.1964],[-4.3619,48.1157],[-4.6837,48.0673],[-4.4346,47.9757],[-4.3473,47.8629],[-4.3718,47.8072],[-4.2252,47.8024],[-4.0944,47.8755],[-3.8945,47.8553],[-3.8517,47.801],[-3.5245,47.7724],[-3.4607,47.7076],[-3.3451,47.7213],[-3.0738,47.5765],[-2.7582,47.6391],[-2.7414,47.5513],[-2.5017,47.5267],[-2.4768,47.4157],[-2.5564,47.3832],[-2.4049,47.2864],[-2.2784,47.2464],[-2.2063,47.2734],[-2.1652,47.1679],[-1.9926,47.0523],[-2.1022,46.9307],[-2.1188,46.82],[-2.0503,46.7921],[-1.8574,46.6353],[-1.8048,46.5036],[-1.5988,46.425],[-1.5045,46.4193],[-1.4487,46.3434],[-1.3702,46.3542],[-1.2401,46.2842],[-1.1772,46.3262],[-1.1107,46.2592],[-1.1796,46.2295],[-1.1505,46.1533],[-1.0487,46.0388],[-1.0966,45.9854],[-1.0734,45.9044],[-1.1517,45.8682],[-1.1254,45.8077],[-1.2303,45.7924],[-1.1942,45.7102],[-1.0838,45.6604],[-1.0303,45.6229],[-0.8418,45.5146],[-0.753,45.4241],[-0.7662,45.3261],[-0.9153,45.4504],[-1.0592,45.527],[-1.14,45.4901],[-1.1579,45.2791],[-1.1995,45.1208],[-1.2336,44.7069],[-1.1654,44.7787],[-1.0653,44.7175],[-1.065,44.6591],[-1.1865,44.6655],[-1.2572,44.5561],[-1.2473,44.5045],[-1.2816,44.3022],[-1.3461,44.0192],[-1.4769,43.5801],[-1.5968,43.4425],[-1.661,43.3997],[-1.8113,43.3951],[-1.8849,43.356],[-2.0989,43.3041],[-2.3674,43.3157],[-2.4835,43.3706],[-2.7558,43.4503],[-2.9301,43.4379],[-3.0293,43.3721],[-3.1124,43.3541],[-3.47,43.4542],[-3.5544,43.5169],[-3.7179,43.4827],[-3.8267,43.497],[-4.1886,43.4054],[-4.3856,43.3836],[-4.4325,43.4026],[-4.7349,43.4171],[-4.8365,43.4498],[-5.1779,43.4894],[-5.284,43.5335],[-5.3724,43.5202],[-5.4242,43.5611],[-5.7089,43.5686],[-5.8522,43.6629],[-5.9074,43.5884],[-6.0692,43.5697],[-6.2228,43.5959],[-6.5101,43.5475],[-6.6487,43.579],[-6.7708,43.5686],[-7.2301,43.5686],[-7.3041,43.5986],[-7.3671,43.6801],[-7.5414,43.7316],[-7.7738,43.7426],[-8.0593,43.7094],[-8.0867,43.6565],[-8.3082,43.5463],[-8.3331,43.4715],[-8.2133,43.425],[-8.443,43.3753],[-8.506,43.3315],[-8.6931,43.2934],[-8.8412,43.3389],[-8.9709,43.2866],[-9.0524,43.1964],[-9.1379,43.2015],[-9.2176,43.1553],[-9.251,43.0168],[-9.2242,42.9402],[-9.1414,42.9214],[-9.1134,42.7661],[-8.9774,42.7923],[-9.0709,42.5961],[-8.9808,42.5512],[-8.9034,42.6255],[-8.823,42.5695],[-8.8129,42.5028],[-8.935,42.4791],[-8.8675,42.4147],[-8.7958,42.2582],[-8.8986,42.1018],[-8.8675,41.8591],[-8.8803,41.7369],[-8.8286,41.6482],[-8.7748,41.4683],[-8.7838,41.3939],[-8.7372,41.2497],[-8.6661,41.1328],[-8.6551,40.9938],[-8.7006,40.778],[-8.6416,40.6942],[-8.7658,40.5825],[-8.8654,40.2755],[-8.9084,40.2007],[-8.8682,40.1248],[-9.0717,39.6804],[-9.0904,39.5793],[-9.2403,39.42],[-9.3529,39.3679],[-9.3509,39.1973],[-9.4366,39.0295],[-9.4227,38.9314],[-9.4919,38.8192],[-9.4917,38.7076],[-9.3218,38.6703],[-9.1125,38.7142],[-9.1066,38.8138],[-9.0115,38.9134],[-8.9426,38.7817],[-9.0524,38.6937],[-9.2527,38.6655],[-9.1838,38.5515],[-9.2004,38.4125],[-9.0486,38.4407],[-8.9058,38.5124],[-8.7951,38.3592],[-8.7744,38.1869],[-8.8675,37.9736],[-8.7972,37.8449],[-8.7993,37.6976],[-8.8265,37.6006],[-8.7979,37.4896],[-8.8387,37.3603],[-8.8828,37.3099],[-8.8814,37.2325],[-8.9856,37.0634],[-8.8789,37.0472],[-8.6268,37.1212],[-8.4388,37.0827],[-8.1792,37.0881],[-7.9814,37.0017],[-7.7866,37.0227],[-7.5118,37.1718],[-7.3279,37.2016],[-7.0294,37.2055],[-6.7449,37.1014],[-6.4996,36.9597],[-6.4148,36.8738],[-6.3622,36.8994],[-6.4251,36.979],[-6.4526,37.1114],[-6.3771,37.1561],[-6.1848,37.1981],[-6.0543,37.2063],[-5.9628,37.137],[-5.933,37.0402],[-6.2157,36.8948],[-6.2592,36.7913],[-6.3176,36.806],[-6.4333,36.7512],[-6.3947,36.6369],[-6.2349,36.5758],[-6.2184,36.4025],[-6.1595,36.3043],[-6.1047,36.2807],[-6.0368,36.1895],[-5.9172,36.1841],[-5.7961,36.0855],[-5.6297,36.0368],[-5.6118,36.0065],[-5.4455,36.0574],[-5.4379,36.1615],[-5.3341,36.1878],[-5.1866,36.4112],[-4.9942,36.4571],[-4.9027,36.5065],[-4.7228,36.493],[-4.5248,36.5807],[-4.4333,36.7107],[-4.2247,36.7124],[-4.0567,36.748],[-3.961,36.7268],[-3.8385,36.752],[-3.7313,36.7241],[-3.6011,36.7426],[-3.4152,36.6955],[-3.3296,36.7449],[-3.2279,36.7548],[-2.9877,36.7371],[-2.9333,36.7517],[-2.7567,36.6804],[-2.6589,36.6948],[-2.5769,36.8113],[-2.3617,36.8368],[-2.2828,36.8101],[-2.2036,36.7371],[-2.0712,36.7753],[-2.0028,36.887],[-1.8987,36.9501],[-1.8127,37.2071],[-1.6709,37.3633],[-1.4884,37.4332],[-1.4709,37.4822],[-1.3237,37.562],[-1.2427,37.5792],[-1.1671,37.5438],[-1.0699,37.5826],[-0.9252,37.5559],[-0.7053,37.6195],[-0.8099,37.6669],[-0.8526,37.7238],[-0.7184,37.943],[-0.6545,37.9893],[-0.645,38.116],[-0.6095,38.178],[-0.504,38.2072],[-0.5188,38.2987],[-0.4137,38.3648],[-0.3294,38.47],[-0.2021,38.5196],[-0.0902,38.5353],[-0.0148,38.6244],[0.083,38.661],[0.2341,38.7579],[0.154,38.831],[-0.0098,38.8697],[-0.1207,38.9511],[-0.21,39.0787],[-0.2155,39.1818],[-0.3013,39.322],[-0.3234,39.5162],[-0.2089,39.6641],[-0.1945,39.7154],[-0.0029,39.932],[0.0662,40.0319],[0.1445,40.0788],[0.2053,40.1715],[0.3506,40.2849],[0.5485,40.5723],[0.5998,40.6137],[0.7142,40.8152],[0.8228,40.8996],[0.8775,40.9548],[1.0557,41.0649],[1.1836,41.0626],[1.2178,41.1047],[1.5392,41.1874],[2.0603,41.2746],[2.1305,41.3037],[2.2967,41.4653],[2.4495,41.5352],[2.7785,41.6456],[3.1502,41.8454],[3.2357,41.9655],[3.2145,42.0683],[3.1225,42.1405],[3.1516,42.2568],[3.263,42.2399],[3.3177,42.323],[3.1745,42.3638],[3.1759,42.4565],[3.1374,42.5249],[3.0518,42.5549],[3.0376,42.6832],[3.0561,42.9071],[3.039,42.9428],[3.114,43.1063],[3.2443,43.2194],[3.3854,43.2839],[3.5134,43.2811],[3.6222,43.3749],[3.7399,43.4128],[3.9393,43.5325],[4.1053,43.5519],[4.1328,43.487],[4.2059,43.4599],[4.513,43.4558],[4.5663,43.3711],[4.6659,43.3475],[4.8203,43.3464],[4.9285,43.4401],[5.0276,43.417],[5.0223,43.5522],[5.2136,43.4578],[5.0571,43.4221],[5.0648,43.328],[5.3389,43.3343],[5.347,43.2159],[5.5378,43.2074],[5.7761,43.1308],[6.027,43.0782],[6.2804,43.1187],[6.3423,43.0908],[6.422,43.1523],[6.5057,43.151],[6.6798,43.2016],[6.6724,43.2762],[6.7311,43.4078],[6.894,43.4276],[6.9756,43.5469],[7.0884,43.5687],[7.1516,43.6548],[7.3305,43.6864],[7.3807,43.7193],[7.3982,43.7183],[7.4226,43.8121],[7.3669,43.9479],[7.4242,44.0069],[7.4275,44.0893],[7.3161,44.1493],[7.0146,44.2409],[6.8737,44.384],[6.8868,44.5278],[6.9703,44.627],[6.9288,44.6545],[6.9766,44.7395],[7.253,44.9041],[7.3675,45.0224],[7.5483,45.0935],[7.6032,45.1387],[7.5849,45.2],[7.4155,45.2822],[7.3812,45.3498],[7.126,45.4268],[7.1077,45.4734],[6.9886,45.5375],[6.9909,45.6432],[6.8239,45.7216],[6.8239,45.8317],[6.9154,45.8445],[7.0436,45.921],[7.1008,45.8684],[7.1901,45.8636],[7.2885,45.9226],[7.3846,45.9003],[7.5563,45.9799],[7.6616,45.9751],[7.8012,45.921],[7.9294,45.9958],[8.0186,46.0053],[8.0347,46.0768],[8.1514,46.1545],[8.0804,46.2512],[8.3185,46.3824],[8.3723,46.4731],[8.5634,46.5574],[8.7373,46.5715],[8.7671,46.5227],[8.8724,46.4991],[8.925,46.5998],[9.0372,46.5778],[8.9937,46.466],[9.3656,46.5046],[9.4686,46.4739],[9.472,46.3745],[9.559,46.384],[9.7124,46.4565],[9.7032,46.518],[9.8818,46.6376],[10.0145,46.6894],[10.1106,46.6281],[10.2503,46.6148],[10.3395,46.5416],[10.6416,46.4455],[10.8499,46.5495],[11.2734,46.6816],[11.3283,46.7898],[11.4313,46.8227],[11.5572,46.7632],[11.7288,46.8117],[12.0287,46.7726],[12.2484,46.7192],[12.3011,46.8196],[12.2667,46.8947],[12.1935,46.9119],[12.1386,47.015],[12.2644,47.0836],[12.1981,47.1272],[12.15,47.4424],[12.1018,47.5096],[12.2062,47.6271],[12.1229,47.7854],[12.1521,47.9854],[12.2521,48.1354],[12.4604,48.1937],[12.4729,48.2396],[12.7604,48.2521],[12.8271,48.2687],[12.9521,48.2062],[13.0271,48.2604],[13.3021,48.3062],[13.4104,48.3729],[13.4729,48.5771],[13.2562,48.6062],[13.1187,48.6646],[12.9646,48.8229],[12.7896,48.8271],[12.6771,48.9062],[12.5437,48.8979],[12.3187,49.0146],[12.0562,49.0312],[11.9646,48.9062],[11.7937,48.8896],[11.739,48.8145],[11.6396,48.7729],[11.4104,48.7479],[11.0979,48.7312],[10.8979,48.7396],[10.7812,48.7146],[10.6187,48.6104],[10.4396,48.5729],[10.3771,48.4937],[10.2729,48.4562],[10.0437,48.4312],[9.9854,48.3812],[10.0646,48.2854],[10.1396,48.1021],[10.1104,47.9771],[10.1896,47.8479],[10.3229,47.7312],[10.3229,47.6687],[10.2396,47.5715],[9.9915,47.5715],[9.7293,47.5007],[9.3396,47.6271],[9.0729,47.6812],[8.9021,47.6479],[8.7437,47.6937],[8.6312,47.6937],[8.5729,47.5687],[8.3229,47.5729],[8.2896,47.6104],[8.1146,47.5854],[8.0896,47.5562],[7.9146,47.5479],[7.8896,47.5896],[7.6687,47.5354],[7.5187,47.6687],[7.5562,47.8771],[7.6229,47.9687],[7.6021,48.0062],[7.5771,48.1229],[7.7479,48.3312],[7.7604,48.4562],[7.8021,48.5854],[7.8146,48.6021],[7.8729,48.6562],[7.9562,48.7146],[8.0521,48.7896],[8.1646,48.9187],[8.2521,48.9771],[8.3062,49.0396],[8.3646,49.1271],[8.3729,49.1771],[8.4521,49.3187],[8.5021,49.3729],[8.3728,49.6475],[8.3646,49.6646]]],[[[-1.3717,45.9953],[-1.2604,45.8818],[-1.2336,45.9917],[-1.3717,45.9953]]],[[[-1.4528,50.6543],[-1.3155,50.5892],[-1.1684,50.6035],[-1.0623,50.6928],[-1.2958,50.7732],[-1.5059,50.7077],[-1.4528,50.6543]]],[[[3.7654,51.6784],[3.7959,51.7001],[3.978,51.6233],[4.089,51.644],[3.9396,51.7412],[3.8101,51.7473],[3.7654,51.6784]]],[[[-3.0463,54.9821],[-3.1228,54.9327],[-3.2765,54.9434],[-3.3879,54.8834],[-3.4396,54.7615],[-3.5007,54.726],[-3.6342,54.5129],[-3.4743,54.3935],[-3.4074,54.2777],[-3.241,54.1121],[-3.1179,54.1088],[-3.061,54.1619],[-2.8509,54.1846],[-2.796,54.1252],[-2.9182,54.0343],[-2.882,53.9565],[-3.0176,53.932],[-3.0492,53.7695],[-2.9517,53.7081],[-3.0995,53.572],[-3.0583,53.4348],[-3.1852,53.3773],[-3.1222,53.2623],[-3.3303,53.3518],[-3.5623,53.2944],[-3.7163,53.2869],[-3.7689,53.3192],[-4.0669,53.2291],[-4.1515,53.2281],[-4.3409,53.1127],[-4.3582,53.0285],[-4.5961,52.9284],[-4.7554,52.8093],[-4.6486,52.7996],[-4.501,52.8268],[-4.4066,52.8925],[-4.2285,52.9192],[-4.1299,52.8892],[-4.1252,52.7783],[-4.0488,52.7216],[-4.1222,52.6287],[-4.0531,52.5424],[-4.0963,52.3879],[-4.1971,52.2793],[-4.5138,52.1357],[-4.6375,52.1385],[-4.7776,52.0649],[-4.9617,52.0075],[-5.0702,52.0264],[-5.1195,51.9589],[-5.2889,51.9169],[-5.1259,51.856],[-5.1071,51.7881],[-5.2301,51.73],[-5.0099,51.7064],[-5.0512,51.6569],[-4.941,51.5965],[-4.8483,51.6463],[-4.7123,51.6501],[-4.6454,51.7321],[-4.3793,51.7269],[-4.2937,51.6723],[-4.2725,51.5548],[-3.9746,51.563],[-3.8549,51.6238],[-3.7179,51.4786],[-3.5392,51.3985],[-3.2894,51.3842],[-3.1848,51.3976],[-3.1056,51.4972],[-2.8587,51.5461],[-2.6938,51.5962],[-2.6962,51.5126],[-2.8164,51.4736],[-2.9596,51.3743],[-3.0575,51.2082],[-3.385,51.1862],[-3.4342,51.2098],[-3.7692,51.2477],[-4.1523,51.2116],[-4.2098,51.1728],[-4.2347,51.0553],[-4.3377,50.9966],[-4.5264,51.015],[-4.5501,50.8096],[-4.7281,50.6723],[-4.7925,50.5952],[-4.8957,50.5859],[-5.0253,50.5242],[-5.0503,50.4287],[-5.1465,50.3553],[-5.438,50.1943],[-5.511,50.2195],[-5.6846,50.1615],[-5.7051,50.0523],[-5.5784,50.0548],[-5.4748,50.1304],[-5.324,50.0895],[-5.2104,49.9667],[-5.0981,50.0144],[-5.1061,50.0951],[-5.0204,50.192],[-4.8002,50.2296],[-4.7521,50.3303],[-4.4954,50.3284],[-4.3837,50.3675],[-4.2523,50.3564],[-4.2161,50.4157],[-4.0329,50.2949],[-3.9499,50.319],[-3.8263,50.2342],[-3.6456,50.226],[-3.632,50.3123],[-3.5389,50.3444],[-3.4875,50.4116],[-3.505,50.5012],[-3.4673,50.5856],[-3.2956,50.6375],[-3.2598,50.6745],[-2.8648,50.7338],[-2.6929,50.6928],[-2.4835,50.5904],[-2.4359,50.6375],[-1.9837,50.5966],[-1.9493,50.7133],[-1.6706,50.7401],[-1.3173,50.8002],[-1.0562,50.783],[-0.9392,50.8432],[-0.8128,50.7348],[-0.569,50.8021],[-0.3976,50.8021],[-0.1732,50.829],[0.1221,50.7608],[0.271,50.7474],[0.3703,50.8188],[0.6242,50.8587],[0.8023,50.9392],[0.9452,50.9094],[1.0276,51.0417],[1.3572,51.131],[1.4131,51.2217],[1.3806,51.3048],[1.4238,51.3921],[1.1009,51.3732],[0.9772,51.3492],[0.7644,51.3644],[0.5545,51.4122],[0.7713,51.5283],[0.9245,51.5883],[0.9518,51.6784],[0.887,51.7821],[0.9888,51.8303],[1.1354,51.7817],[1.2883,51.8606],[1.3323,51.9401],[1.5037,52.061],[1.5823,52.0815],[1.6305,52.2705],[1.7712,52.4859],[1.7472,52.6252],[1.6442,52.7758],[1.396,52.8914],[1.2747,52.9292],[0.9661,52.9744],[0.5696,52.9693],[0.4857,52.9335],[0.3792,52.7908],[0.2468,52.7957],[0.1709,52.8621],[0.0221,52.9126],[0.1608,53.009],[0.3298,53.0865],[0.3421,53.2263],[0.2195,53.4195],[-0.0466,53.5704],[-0.1886,53.6204],[0.1335,53.6426],[-0.1511,53.8993],[-0.2195,54.0228],[-0.1114,54.1316],[-0.2339,54.1605],[-0.2771,54.2178],[-0.3976,54.2692],[-0.4306,54.3493],[-0.563,54.4774],[-0.7879,54.5608],[-1.1036,54.6247],[-1.2755,54.7484],[-1.3558,54.9043],[-1.5179,55.1571],[-1.9032,55.1951],[-2.3062,55.3053],[-2.5356,55.3016],[-2.706,55.2587],[-2.8502,55.1258],[-3.0463,54.9821]]]]},"properties":{"Nombre":"Imperio Galo"}},
{"type":"Feature","geometry":{"type":"Polygon","coordinates":[[[19.2875,30.286],[19.2875,41.9022],[19.1703,41.938],[19.1392,42.0424],[18.9133,42.2222],[18.8716,42.2905],[18.7786,42.2715],[18.6958,42.3738],[18.6167,42.3681],[18.2389,42.5591],[18.2175,42.6201],[18.076,42.6513],[18.0479,42.6906],[17.8067,42.8119],[17.7288,42.8008],[17.4404,42.8734],[17.2019,42.9843],[17.2402,43.0228],[17.3905,42.9777],[17.4407,43.0323],[17.3163,43.1273],[17.0735,43.239],[16.8806,43.406],[16.6258,43.449],[16.4338,43.5498],[16.3368,43.5512],[16.1507,43.5114],[16.0985,43.48],[15.9837,43.5211],[15.918,43.5933],[15.9312,43.6765],[15.4661,43.9217],[15.3581,44.0257],[15.1445,44.1955],[15.1576,44.2803],[15.2817,44.2854],[15.308,44.3544],[15.0801,44.5361],[15.0013,44.5785],[14.9014,44.6902],[14.8838,44.8615],[14.9216,44.9588],[14.8274,45.114],[14.6579,45.1966],[14.5105,45.2998],[14.3298,45.354],[14.272,45.2901],[14.2326,45.1494],[14.1541,45.072],[14.1637,44.9958],[14.0757,44.9837],[13.9727,44.8266],[13.86,44.8257],[13.7741,44.9638],[13.6438,45.0705],[13.596,45.1454],[13.5957,45.2405],[13.5134,45.4362],[13.5071,45.5119],[13.7529,45.5529],[13.7956,45.617],[13.7262,45.7038],[13.5513,45.7924],[13.5078,45.7144],[13.1314,45.7689],[13.0696,45.7137],[13.085,45.6419],[12.9439,45.6286],[12.7808,45.5535],[12.4878,45.4567],[12.4419,45.5303],[12.2727,45.4636],[12.259,45.3952],[12.1688,45.2622],[12.2961,45.2266],[12.3285,45.101],[12.3762,45.039],[12.527,44.9433],[12.4446,44.8205],[12.3757,44.7922],[12.2923,44.8432],[12.2536,44.7513],[12.2858,44.6027],[12.2837,44.4876],[12.3688,44.2507],[12.4788,44.1393],[12.7103,43.9829],[12.804,43.9669],[12.9473,43.8976],[13.2533,43.7032],[13.4734,43.612],[13.617,43.5313],[13.8348,43.1273],[13.9447,42.7983],[14.0754,42.5988],[14.2206,42.4702],[14.3874,42.373],[14.5602,42.2257],[14.7171,42.1601],[14.7407,42.0846],[14.8711,42.0318],[14.9937,42.0106],[15.1234,41.9343],[15.4461,41.9069],[15.6113,41.928],[15.7744,41.9212],[16.0271,41.9441],[16.1405,41.9199],[16.1929,41.7909],[16.0275,41.6799],[15.9253,41.64],[15.8914,41.5768],[15.9118,41.5029],[16.0217,41.4278],[16.3014,41.3279],[16.5939,41.207],[17.0571,41.0819],[17.2764,40.9802],[17.4761,40.8301],[17.7484,40.7476],[17.8439,40.6942],[18.007,40.6507],[18.0374,40.557],[18.2383,40.4577],[18.4373,40.2679],[18.5174,40.1142],[18.4341,40.0225],[18.3926,39.9161],[18.384,39.8139],[18.2113,39.8393],[18.0715,39.9115],[18.0073,39.9861],[17.9972,40.1204],[17.926,40.1763],[17.9128,40.2553],[17.8477,40.29],[17.5121,40.3037],[17.2129,40.4062],[17.2474,40.5028],[17.0496,40.5191],[16.9121,40.4452],[16.7827,40.3016],[16.7376,40.211],[16.6047,40.0845],[16.6316,39.9662],[16.4917,39.8055],[16.5156,39.6896],[16.6248,39.6253],[16.7498,39.62],[16.8462,39.5527],[17.0115,39.4862],[17.1587,39.4062],[17.1222,39.3383],[17.1457,39.2107],[17.1245,39.0909],[17.1724,39.0052],[17.1277,38.9288],[17.022,38.906],[16.9813,38.9372],[16.8386,38.9182],[16.6106,38.8166],[16.5388,38.7233],[16.577,38.5286],[16.5696,38.4295],[16.4671,38.3487],[16.3399,38.3008],[16.1694,38.1432],[16.09,37.9492],[15.7615,37.9252],[15.6658,37.9669],[15.6275,38.1074],[15.6506,38.241],[15.7865,38.278],[15.9048,38.4739],[15.9001,38.5783],[15.8445,38.6604],[16.0026,38.7254],[16.1209,38.7209],[16.2151,38.8142],[16.2201,38.8991],[16.1543,38.955],[16.083,39.0753],[16.034,39.3452],[15.9954,39.4388],[15.8675,39.5639],[15.8064,39.6955],[15.7819,39.8686],[15.728,39.9642],[15.6102,40.0732],[15.5349,40.0778],[15.4101,39.994],[15.2831,40.0299],[15.2634,40.0737],[15.1272,40.1696],[15.0349,40.1754],[14.9111,40.2416],[14.9324,40.3337],[14.9983,40.3976],[14.8888,40.5731],[14.7522,40.6767],[14.5442,40.6136],[14.3797,40.6339],[14.4741,40.7297],[14.2942,40.8388],[14.2035,40.8012],[14.0523,40.8376],[14.0213,40.9218],[13.8517,41.1473],[13.7219,41.2524],[13.5144,41.2297],[13.3244,41.2948],[13.2048,41.2838],[13.0446,41.2275],[12.9795,41.331],[12.8936,41.3993],[12.6194,41.4591],[12.448,41.6308],[12.3428,41.7023],[12.239,41.7363],[12.1475,41.9035],[11.9168,42.0379],[11.8275,42.0342],[11.6582,42.2794],[11.5391,42.3489],[11.3766,42.4069],[11.1642,42.4398],[11.1869,42.5208],[10.99,42.7103],[10.8909,42.7639],[10.7313,42.8044],[10.7777,42.8947],[10.6814,42.949],[10.4995,42.9405],[10.5466,43.1471],[10.5169,43.2668],[10.437,43.3886],[10.3263,43.4769],[10.2948,43.5685],[10.264,43.8094],[10.2101,43.9202],[10.1058,44.0168],[9.9627,44.0447],[9.8447,44.1086],[9.7718,44.0794],[9.6211,44.1483],[9.4844,44.2438],[9.2306,44.3537],[8.7624,44.4321],[8.4661,44.3043],[8.4082,44.1935],[8.2332,44.1036],[8.1447,43.9526],[7.9597,43.8529],[7.695,43.7912],[7.5023,43.7922],[7.4043,43.718],[7.3807,43.7193],[7.3305,43.6864],[7.1516,43.6548],[7.0884,43.5687],[6.9756,43.5469],[6.894,43.4276],[6.7311,43.4078],[6.6724,43.2762],[6.6798,43.2016],[6.5057,43.151],[6.422,43.1523],[6.3423,43.0908],[6.2804,43.1187],[6.027,43.0782],[5.7761,43.1308],[5.5378,43.2074],[5.347,43.2159],[5.3389,43.3343],[5.0648,43.328],[5.0571,43.4221],[5.2136,43.4578],[5.0223,43.5522],[5.0276,43.417],[4.9285,43.4401],[4.8203,43.3464],[4.6659,43.3475],[4.5663,43.3711],[4.513,43.4558],[4.2059,43.4599],[4.1328,43.487],[4.1053,43.5519],[3.9393,43.5325],[3.7399,43.4128],[3.6222,43.3749],[3.5134,43.2811],[3.3854,43.2839],[3.2443,43.2194],[3.114,43.1063],[3.039,42.9428],[3.0561,42.9071],[3.0376,42.6832],[3.0518,42.5549],[3.1374,42.5249],[3.1759,42.4565],[3.1745,42.3638],[3.3177,42.323],[3.263,42.2399],[3.1516,42.2568],[3.1225,42.1405],[3.2145,42.0683],[3.2357,41.9655],[3.1502,41.8454],[2.7785,41.6456],[2.4495,41.5352],[2.2967,41.4653],[2.1305,41.3037],[2.0603,41.2746],[1.5392,41.1874],[1.2178,41.1047],[1.1836,41.0626],[1.0557,41.0649],[0.8775,40.9548],[0.8228,40.8996],[0.7142,40.8152],[0.5998,40.6137],[0.5485,40.5723],[0.3506,40.2849],[0.2053,40.1715],[0.1445,40.0788],[0.0662,40.0319],[-0.0029,39.932],[-0.1945,39.7154],[-0.2089,39.6641],[-0.3234,39.5162],[-0.3013,39.322],[-0.2155,39.1818],[-0.21,39.0787],[-0.1207,38.9511],[-0.0098,38.8697],[0.154,38.831],[0.2341,38.7579],[0.083,38.661],[-0.0148,38.6244],[-0.0902,38.5353],[-0.2021,38.5196],[-0.3294,38.47],[-0.4137,38.3648],[-0.5188,38.2987],[-0.504,38.2072],[-0.6095,38.178],[-0.645,38.116],[-0.6545,37.9893],[-0.7184,37.943],[-0.8526,37.7238],[-0.8099,37.6669],[-0.7053,37.6195],[-0.9252,37.5559],[-1.0699,37.5826],[-1.1671,37.5438],[-1.2427,37.5792],[-1.3237,37.562],[-1.4709,37.4822],[-1.4884,37.4332],[-1.6709,37.3633],[-1.8127,37.2071],[-1.8987,36.9501],[-2.0028,36.887],[-2.0712,36.7753],[-2.2036,36.7371],[-2.2828,36.8101],[-2.3617,36.8368],[-2.5769,36.8113],[-2.6589,36.6948],[-2.7567,36.6804],[-2.9333,36.7517],[-2.9877,36.7371],[-3.2279,36.7548],[-3.3296,36.7449],[-3.4152,36.6955],[-3.6011,36.7426],[-3.7313,36.7241],[-3.8385,36.752],[-3.961,36.7268],[-4.0567,36.748],[-4.2247,36.7124],[-4.4333,36.7107],[-4.5248,36.5807],[-4.7228,36.493],[-4.9027,36.5065],[-4.9942,36.4571],[-5.1866,36.4112],[-5.3341,36.1878],[-5.4379,36.1615],[-5.4455,36.0574],[-5.6118,36.0065],[-5.6297,36.0368],[-5.7961,36.0855],[-5.9172,36.1841],[-6.0368,36.1895],[-6.1047,36.2807],[-6.1595,36.3043],[-6.2184,36.4025],[-6.2349,36.5758],[-6.3947,36.6369],[-6.4333,36.7512],[-6.3176,36.806],[-6.2592,36.7913],[-6.2157,36.8948],[-5.933,37.0402],[-5.9628,37.137],[-6.0543,37.2063],[-6.1848,37.1981],[-6.3771,37.1561],[-6.4526,37.1114],[-6.4251,36.979],[-6.3622,36.8994],[-6.4148,36.8738],[-6.4996,36.9597],[-6.7449,37.1014],[-7.0294,37.2055],[-7.3279,37.2016],[-7.5118,37.1718],[-7.7866,37.0227],[-7.9814,37.0017],[-8.1792,37.0881],[-8.4388,37.0827],[-8.6268,37.1212],[-8.8789,37.0472],[-8.9856,37.0634],[-8.8814,37.2325],[-8.8828,37.3099],[-8.8387,37.3603],[-8.7979,37.4896],[-8.8265,37.6006],[-8.7993,37.6976],[-8.7972,37.8449],[-8.8675,37.9736],[-8.7744,38.1869],[-8.7951,38.3592],[-8.9058,38.5124],[-9.0486,38.4407],[-9.2004,38.4125],[-9.1838,38.5515],[-9.2527,38.6655],[-9.0524,38.6937],[-8.9426,38.7817],[-9.0115,38.9134],[-9.1066,38.8138],[-9.1125,38.7142],[-9.3218,38.6703],[-9.4917,38.7076],[-9.4919,38.8192],[-9.4227,38.9314],[-9.4366,39.0295],[-9.3509,39.1973],[-9.3529,39.3679],[-9.2403,39.42],[-9.0904,39.5793],[-9.0717,39.6804],[-8.8682,40.1248],[-8.9084,40.2007],[-8.8654,40.2755],[-8.7658,40.5825],[-8.6416,40.6942],[-8.7006,40.778],[-8.6551,40.9938],[-8.6661,41.1328],[-8.7372,41.2497],[-8.7838,41.3939],[-8.7748,41.4683],[-8.8286,41.6482],[-8.8803,41.7369],[-8.8675,41.8591],[-8.8986,42.1018],[-8.7958,42.2582],[-8.8675,42.4147],[-8.935,42.4791],[-8.8129,42.5028],[-8.823,42.5695],[-8.9034,42.6255],[-8.9808,42.5512],[-9.0709,42.5961],[-8.9774,42.7923],[-9.1134,42.7661],[-9.1414,42.9214],[-9.2242,42.9402],[-9.251,43.0168],[-9.2176,43.1553],[-9.1379,43.2015],[-9.0524,43.1964],[-8.9709,43.2866],[-8.8412,43.3389],[-8.6931,43.2934],[-8.506,43.3315],[-8.443,43.3753],[-8.2133,43.425],[-8.3331,43.4715],[-8.3082,43.5463],[-8.0867,43.6565],[-8.0593,43.7094],[-7.7738,43.7426],[-7.5414,43.7316],[-7.3671,43.6801],[-7.3041,43.5986],[-7.2301,43.5686],[-6.7708,43.5686],[-6.6487,43.579],[-6.5101,43.5475],[-6.2228,43.5959],[-6.0692,43.5697],[-5.9074,43.5884],[-5.8522,43.6629],[-5.7089,43.5686],[-5.4242,43.5611],[-5.3724,43.5202],[-5.284,43.5335],[-5.1779,43.4894],[-4.8365,43.4498],[-4.7349,43.4171],[-4.4325,43.4026],[-4.3856,43.3836],[-4.1886,43.4054],[-3.8267,43.497],[-3.7179,43.4827],[-3.5544,43.5169],[-3.47,43.4542],[-3.1124,43.3541],[-3.0293,43.3721],[-2.9301,43.4379],[-2.7558,43.4503],[-2.4835,43.3706],[-2.3674,43.3157],[-2.0989,43.3041],[-1.8849,43.356],[-1.8113,43.3951],[-1.661,43.3997],[-1.5968,43.4425],[-1.4769,43.5801],[-1.3461,44.0192],[-1.2816,44.3022],[-1.2473,44.5045],[-1.2572,44.5561],[-1.1865,44.6655],[-1.065,44.6591],[-1.0653,44.7175],[-1.1654,44.7787],[-1.2336,44.7069],[-1.1995,45.1208],[-1.1579,45.2791],[-1.14,45.4901],[-1.0592,45.527],[-0.9153,45.4504],[-0.7662,45.3261],[-0.753,45.4241],[-0.8418,45.5146],[-1.0303,45.6229],[-1.0838,45.6604],[-1.1942,45.7102],[-1.2303,45.7924],[-1.1254,45.8077],[-1.1517,45.8682],[-1.0734,45.9044],[-1.0966,45.9854],[-1.0487,46.0388],[-1.1505,46.1533],[-1.1796,46.2295],[-1.1107,46.2592],[-1.1772,46.3262],[-1.2401,46.2842],[-1.3702,46.3542],[-1.4487,46.3434],[-1.5045,46.4193],[-1.5988,46.425],[-1.8048,46.5036],[-1.8574,46.6353],[-2.0503,46.7921],[-2.1188,46.82],[-2.1022,46.9307],[-1.9926,47.0523],[-2.1652,47.1679],[-2.2063,47.2734],[-2.2784,47.2464],[-2.4049,47.2864],[-2.5564,47.3832],[-2.4768,47.4157],[-2.5017,47.5267],[-2.7414,47.5513],[-2.7582,47.6391],[-3.0738,47.5765],[-3.3451,47.7213],[-3.4607,47.7076],[-3.5245,47.7724],[-3.8517,47.801],[-3.8945,47.8553],[-4.0944,47.8755],[-4.2252,47.8024],[-4.3718,47.8072],[-4.3473,47.8629],[-4.4346,47.9757],[-4.6837,48.0673],[-4.3619,48.1157],[-4.3024,48.1964],[-4.4576,48.249],[-4.4265,48.3],[-4.2694,48.2884],[-4.3247,48.3627],[-4.4265,48.4037],[-4.6189,48.3485],[-4.7834,48.3764],[-4.7646,48.5202],[-4.722,48.5682],[-4.5636,48.6296],[-4.3433,48.6789],[-4.2831,48.6433],[-4.1739,48.6911],[-3.974,48.7328],[-3.9495,48.6693],[-3.7319,48.719],[-3.614,48.6827],[-3.5428,48.7457],[-3.5153,48.8419],[-3.3718,48.8225],[-3.0915,48.8713],[-3.0771,48.8283],[-2.827,48.6575],[-2.813,48.5986],[-2.6363,48.5388],[-2.5771,48.5825],[-2.3125,48.687],[-2.2192,48.6037],[-1.977,48.6911],[-1.8437,48.7121],[-1.8382,48.6238],[-1.7228,48.6153],[-1.5797,48.6433],[-1.508,48.7016],[-1.5536,48.7471],[-1.5718,48.8742],[-1.5458,49.0303],[-1.5968,49.0374],[-1.6104,49.2159],[-1.7148,49.3385],[-1.8196,49.3968],[-1.8847,49.5309],[-1.8437,49.5718],[-1.8695,49.6617],[-1.8118,49.6907],[-1.5973,49.6523],[-1.3913,49.7127],[-1.2711,49.6984],[-1.2322,49.6414],[-1.3063,49.5581],[-1.1229,49.3454],[-1.0723,49.3968],[-0.8221,49.3627],[-0.5469,49.359],[-0.4111,49.3428],[-0.2195,49.2801],[0.072,49.3593],[0.2568,49.4641],[0.1044,49.4936],[0.0797,49.5422],[0.1709,49.6916],[0.2359,49.7293],[0.6748,49.8758],[0.7609,49.8751],[1.1726,49.961],[1.3913,50.0752],[1.521,50.2147],[1.5735,50.4454],[1.5632,50.6783],[1.6056,50.79],[1.5806,50.8688],[1.7298,50.9439],[1.9735,51.0071],[2.4661,51.0688],[3.1248,51.3297],[3.5414,51.4167],[3.7555,51.3501],[3.9558,51.3718],[4.2411,51.3566],[4.2449,51.4145],[4.1111,51.407],[3.9431,51.4504],[3.8272,51.3911],[3.6897,51.4543],[3.5354,51.4592],[3.4575,51.5551],[3.5604,51.5946],[3.8289,51.6127],[4.0571,51.5084],[4.1288,51.4414],[4.2832,51.4477],[4.2398,51.5185],[4.0672,51.544],[3.9881,51.5903],[4.118,51.6307],[4.0339,51.7842],[4.0402,51.9241],[4.01,51.9801],[4.1419,52.0056],[4.2847,52.1129],[4.5081,52.3364],[4.5969,52.5066],[4.6694,52.7966],[4.7455,52.9676],[4.9131,52.9056],[5.0781,52.954],[5.3128,53.0828],[5.3792,53.0974],[5.4474,53.2209],[5.5916,53.3028],[5.9808,53.4061],[6.3456,53.4127],[6.7302,53.4606],[6.8669,53.4343],[6.9006,53.3518],[7.1834,53.2451],[7.2547,53.3195],[7.0752,53.3376],[7.0233,53.4505],[7.0868,53.5869],[7.2261,53.6665],[7.4588,53.6951],[7.5039,53.6787],[7.9514,53.7219],[8.0314,53.7081],[8.0529,53.6363],[8.168,53.5532],[8.0588,53.502],[8.2053,53.4107],[8.2928,53.4405],[8.3205,53.5092],[8.2489,53.5903],[8.3485,53.6129],[8.4281,53.5648],[8.5658,53.5467],[8.4839,53.6836],[8.5733,53.8577],[8.6846,53.8885],[8.8607,53.831],[9.1145,53.8651],[8.916,53.9374],[8.8333,54.0364],[8.9972,54.0302],[9.0183,54.0979],[8.8128,54.1805],[8.888,54.3039],[8.6519,54.2748],[8.6292,54.3877],[8.8607,54.4138],[9.0047,54.4659],[9.0116,54.5063],[8.8533,54.6193],[8.8054,54.6876],[8.6887,54.7353],[8.6484,54.8179],[8.6748,54.9479],[8.641,55.0234],[8.6895,55.1416],[8.6177,55.4379],[8.4419,55.4639],[8.2902,55.5838],[8.1936,55.5259],[8.094,55.5639],[8.1502,55.6492],[8.1936,55.8118],[8.3478,55.8693],[8.3869,55.9265],[8.2824,56.0759],[8.1065,56.1195],[8.1338,56.2055],[8.1224,56.5517],[8.2022,56.6402],[8.312,56.5788],[8.4365,56.5802],[8.6011,56.5011],[8.7266,56.4832],[8.709,56.5886],[8.8766,56.7643],[8.9557,56.803],[9.106,56.8001],[9.1629,56.7296],[9.1494,56.6389],[9.326,56.6694],[9.1844,56.784],[9.1629,56.8941],[9.2887,56.9971],[9.437,57.0244],[9.5868,56.9971],[9.6751,57.0792],[9.2651,57.0034],[9.1128,57.0386],[8.8732,57.0048],[8.6795,56.9525],[8.4915,56.7314],[8.589,56.6813],[8.5393,56.5928],[8.3734,56.6802],[8.2704,56.8432],[8.5863,57.1064],[8.7839,57.1048],[8.9805,57.161],[9.2306,57.1411],[9.4121,57.1654],[9.5733,57.2429],[9.7884,57.4593],[9.967,57.5914],[10.1976,57.6012],[10.4725,57.717],[10.5425,57.6989],[10.4304,57.5705],[10.5466,57.4353],[10.5174,57.3913],[10.5391,57.2367],[10.4468,57.1849],[10.2659,56.9077],[10.3609,56.5617],[10.5515,56.5156],[10.7891,56.5364],[10.9641,56.4484],[10.9116,56.3341],[10.75,56.2161],[10.6286,56.2375],[10.5492,56.1782],[10.377,56.2033],[10.2202,56.1479],[10.259,56.099],[10.2454,55.9146],[10.1511,55.8381],[10.0357,55.8184],[9.9817,55.7094],[9.7922,55.6745],[9.8538,55.6267],[9.7069,55.5373],[9.5868,55.4274],[9.6008,55.3659],[9.7103,55.2487],[9.6898,55.2049],[9.4944,55.1605],[9.5685,55.0488],[9.7386,54.9809],[9.7445,54.8663],[9.8018,54.7834],[9.9705,54.7626],[10.0319,54.6528],[10.02,54.5458],[10.2039,54.461],[10.7771,54.3151],[10.9353,54.3795],[11.0774,54.3422],[11.0666,54.1839],[10.7526,54.0439],[10.8874,53.9639],[11.1751,54.018],[11.2429,53.9452],[11.459,53.9167],[11.4917,54.0023],[11.6194,54.0773],[11.6579,54.1422],[12.1089,54.183],[12.1869,54.2434],[12.3421,54.3039],[12.502,54.4736],[12.6946,54.4337],[12.6773,54.3921],[12.876,54.3654],[13.0088,54.4381],[13.1149,54.28],[13.2888,54.2343],[13.4793,54.1252],[13.6834,54.168],[13.8081,54.1047],[13.7581,54.031],[13.8901,53.9129],[13.8185,53.878],[13.9842,53.774],[14.1061,53.7434],[14.2645,53.7516],[14.4146,53.6824],[14.5449,53.704],[14.5759,53.8548],[14.4412,53.8696],[14.2747,53.8308],[14.2031,53.8783],[13.8753,53.8441],[13.9317,53.8993],[13.9019,53.9698],[14.0513,54.0051],[13.9461,54.0666],[13.823,54.0379],[13.8062,54.1166],[14.0166,54.06],[14.1924,53.9461],[14.367,53.917],[14.7819,54.0346],[15.0101,54.0698],[15.2883,54.1389],[15.6658,54.1984],[15.8597,54.25],[16.2201,54.2766],[16.324,54.4013],[16.5013,54.5324],[16.5696,54.5572],[16.94,54.606],[17.0358,54.6671],[17.3374,54.749],[17.7157,54.7904],[17.8854,54.8241],[18.3169,54.8383],[18.4292,54.7817],[18.5706,54.5504],[18.5881,54.4337],[18.7173,54.382],[19.0021,54.3449],[19.2875,54.3698],[19.2875,57.9452],[19.2875,58.9486],[17.9663,58.9472],[17.9307,58.9101],[17.6267,58.9178],[17.4597,58.7914],[17.2761,58.7307],[17.1624,58.732],[17.093,58.6608],[16.9242,58.6254],[16.2337,58.6693],[16.4092,58.5966],[16.6359,58.6268],[16.786,58.5727],[16.8659,58.4831],[16.7205,58.4365],[16.7793,58.3256],[16.7295,58.2685],[16.8213,58.2071],[16.679,58.0051],[16.5901,57.9356],[16.4603,57.8947],[16.6755,57.7645],[16.6106,57.6824],[16.6292,57.5569],[16.689,57.4717],[16.656,57.4092],[16.5348,57.3603],[16.465,57.1773],[16.5525,57.1101],[16.4398,57.0141],[16.4681,56.9493],[16.3566,56.7584],[16.3792,56.6756],[16.2552,56.6504],[16.2132,56.5484],[16.0952,56.4194],[16.0383,56.2551],[15.8517,56.0864],[15.7312,56.1572],[15.5728,56.2063],[15.4929,56.1763],[15.049,56.1536],[14.9534,56.1729],[14.6858,56.1474],[14.7678,56.0307],[14.7155,56.0023],[14.5667,56.0556],[14.3464,55.9533],[14.2085,55.8213],[14.1958,55.7257],[14.3582,55.5637],[14.363,55.5236],[14.1812,55.3908],[14.0941,55.3874],[13.8823,55.4331],[13.6296,55.4183],[13.3814,55.346],[13.2805,55.3454],[13,55.4001],[12.9294,55.5789],[13.0614,55.6745],[12.9226,55.7495],[12.926,55.8341],[12.8213,55.8867],[12.7523,55.9966],[12.6095,56.1165],[12.5046,56.2753],[12.7048,56.2225],[12.8335,56.2657],[12.6216,56.4193],[12.7137,56.4674],[12.8333,56.4426],[12.9344,56.5471],[12.8718,56.6495],[12.7318,56.647],[12.6157,56.7501],[12.5983,56.821],[12.375,56.9121],[12.3333,57.0209],[12.2713,57.0429],[12.2044,57.1479],[12.1087,57.3944],[12.0593,57.4588],[11.9033,57.5241],[11.8446,57.683],[11.7063,57.722],[11.7518,57.7848],[11.6936,57.8812],[11.8029,58.0366],[11.783,58.0692],[11.8757,58.1992],[11.807,58.3266],[11.7267,58.3271],[11.5671,58.2492],[11.4966,58.2584],[11.3825,58.3539],[11.2249,58.3707],[11.2577,58.4822],[11.2498,58.6489],[11.1786,58.7365],[11.2317,58.7996],[11.1976,58.9225],[11.1232,58.9397],[9.5942,58.938],[9.4281,58.8931],[9.4504,58.8332],[9.3405,58.7512],[9.0338,58.5948],[8.9439,58.526],[8.5134,58.2934],[8.3535,58.2447],[8.1229,58.102],[8.0075,58.1445],[7.9158,58.0819],[7.6536,58.0646],[7.6148,58.0221],[7.3906,58.0175],[7.1555,58.0503],[6.9994,58.0307],[6.8738,58.1348],[6.7315,58.1199],[6.6185,58.0683],[6.542,58.1077],[6.6262,58.2447],[6.4006,58.2722],[6.1403,58.3397],[5.978,58.4145],[5.9285,58.4836],[5.7042,58.5208],[5.5715,58.6283],[5.478,58.7547],[5.5267,58.7841],[5.5438,58.9335],[-0.0003,58.9275],[-2.7183,58.9245],[-2.8393,58.8826],[-2.9471,58.9242],[-3.3224,58.9238],[-3.1932,58.8536],[-3.1563,58.7868],[-3.2993,58.7791],[-3.4302,58.8748],[-3.3745,58.9238],[-12.9406,58.9133],[-12.9974,45.1811],[-13.0596,30.1374],[-9.6524,30.1374],[-9.6116,30.4044],[-9.7001,30.5427],[-9.8867,30.6867],[-9.8202,30.7923],[-9.835,31.1448],[-9.8109,31.3668],[-9.8475,31.4024],[-9.6893,31.6352],[-9.6673,31.7311],[-9.4838,31.9226],[-9.3661,32.0263],[-9.27,32.2275],[-9.292,32.3508],[-9.2469,32.4723],[-9.2599,32.5769],[-9.1122,32.6828],[-8.9985,32.7971],[-8.8678,32.8819],[-8.6291,33.1276],[-8.621,33.1735],[-8.5292,33.2687],[-8.4516,33.2642],[-8.2432,33.4045],[-8.1066,33.4309],[-7.8914,33.5034],[-7.8697,33.5266],[-7.4971,33.65],[-7.4064,33.727],[-7.3526,33.7247],[-7.2293,33.8009],[-7.0995,33.8403],[-6.9274,33.9442],[-6.8221,34.0396],[-6.6678,34.2805],[-6.5579,34.4177],[-6.2921,34.8808],[-6.2054,35.1246],[-6.0239,35.5012],[-5.9272,35.7807],[-5.7814,35.7909],[-5.7117,35.8306],[-5.599,35.8223],[-5.4481,35.9185],[-5.2919,35.8905],[-5.3457,35.8326],[-5.3226,35.7138],[-5.2494,35.5846],[-5.1508,35.5161],[-5.0663,35.4175],[-4.7705,35.241],[-4.376,35.1518],[-3.9613,35.2504],[-3.9039,35.2142],[-3.7648,35.2185],[-3.6736,35.2879],[-3.591,35.2333],[-3.4129,35.1979],[-3.1951,35.2382],[-2.963,35.3735],[-2.899,35.26],[-2.882,35.1467],[-2.7611,35.1433],[-2.5632,35.0961],[-2.4167,35.1492],[-2.2226,35.0893],[-2.0524,35.075],[-1.7611,35.1296],[-1.5104,35.2955],[-1.3959,35.3094],[-1.2677,35.3903],[-1.1903,35.5661],[-1.0329,35.6826],[-0.8994,35.7118],[-0.825,35.7685],[-0.6826,35.7174],[-0.5234,35.7797],[-0.477,35.8594],[-0.3485,35.907],[-0.2594,35.8175],[-0.1239,35.7869],[0.0345,35.8633],[0.1273,36.0508],[0.3293,36.165],[0.3423,36.206],[0.4513,36.2232],[0.6633,36.3326],[0.8648,36.3774],[0.9363,36.4436],[1.0448,36.4869],[1.2883,36.5212],[1.3467,36.545],[1.4528,36.528],[1.9138,36.5702],[2.0599,36.5701],[2.3098,36.6305],[2.457,36.5895],[2.633,36.6051],[2.8187,36.7109],[2.9331,36.8086],[3.0142,36.8117],[3.1018,36.7519],[3.1794,36.7428],[3.2378,36.8131],[3.3405,36.7807],[3.4607,36.7751],[3.6497,36.824],[3.7419,36.8912],[3.8275,36.9129],[4.1048,36.8837],[4.4407,36.9116],[4.5041,36.8893],[4.7871,36.8954],[5.1048,36.7813],[5.1184,36.6994],[5.3044,36.643],[5.4649,36.6652],[5.5762,36.7614],[5.7588,36.8334],[5.8688,36.8229],[6.0371,36.8536],[6.197,36.9023],[6.2544,36.999],[6.3387,37.0693],[6.4624,37.0939],[6.5442,37.0588],[6.5833,36.9898],[6.6712,36.9594],[6.822,36.9526],[6.9094,36.8931],[7.0923,36.9259],[7.157,36.9147],[7.239,36.9715],[7.2748,37.0693],[7.3835,37.083],[7.4902,37.055],[7.5889,36.9876],[7.7127,36.9632],[7.7734,36.89],[7.9085,36.8496],[8.05,36.8776],[8.2332,36.9581],[8.2881,36.9259],[8.4976,36.9042],[8.6921,36.9694],[8.802,36.9731],[8.9037,37.0217],[8.9876,37.1168],[9.2107,37.2338],[9.3425,37.2353],[9.6663,37.3354],[9.8589,37.3288],[9.8617,37.2712],[9.7718,37.2133],[9.8159,37.1518],[10.0513,37.2666],[10.1463,37.2365],[10.1616,37.1343],[10.2201,36.9766],[10.3472,36.8803],[10.2721,36.8161],[10.3201,36.7488],[10.437,36.7288],[10.5382,36.772],[10.5669,36.8632],[10.7335,36.8958],[11.0127,37.0848],[11.1168,36.8384],[11.0221,36.7883],[10.8795,36.5885],[10.7999,36.4519],[10.6204,36.3903],[10.5191,36.3375],[10.4793,36.217],[10.4795,36.0793],[10.5186,35.98],[10.6086,35.8559],[10.6937,35.7878],[10.8414,35.7665],[10.8412,35.6988],[11.012,35.6579],[11.0239,35.5338],[11.0577,35.4867],[11.0422,35.3344],[11.1116,35.2056],[11.0159,35.0928],[11.0181,35.0342],[10.9177,34.9574],[10.9163,34.8736],[10.8563,34.8309],[10.7012,34.656],[10.6253,34.6332],[10.597,34.5447],[10.4319,34.4963],[10.3787,34.4231],[10.1267,34.3256],[10.0052,34.1706],[10.0488,33.9835],[10.1631,33.8362],[10.3303,33.7028],[10.4893,33.6471],[10.7166,33.7069],[10.7369,33.6029],[10.6741,33.5456],[10.7171,33.4835],[10.7805,33.4857],[10.9094,33.5396],[10.9065,33.6164],[10.9779,33.6431],[11.1082,33.5496],[11.0899,33.4541],[11.1707,33.3318],[11.1218,33.28],[11.1795,33.2111],[11.2454,33.2179],[11.3722,33.1838],[11.4424,33.2047],[11.575,33.1579],[11.6358,33.1087],[11.847,33.0828],[12.0807,32.9578],[12.1224,32.9213],[12.3483,32.8327],[12.7298,32.7986],[12.8244,32.8043],[13.0745,32.8664],[13.1647,32.9127],[13.3517,32.9042],[13.5715,32.8028],[13.7871,32.7996],[13.9912,32.7446],[14.1755,32.7177],[14.4695,32.519],[14.6316,32.4957],[14.7268,32.4508],[14.9111,32.4439],[15.196,32.3898],[15.2831,32.3173],[15.3705,32.1591],[15.3552,32.0385],[15.3705,31.9294],[15.4904,31.6649],[15.6228,31.4973],[15.7615,31.3881],[16.0446,31.2755],[16.3587,31.2271],[16.728,31.2238],[16.9419,31.1833],[17.1603,31.1188],[17.3659,31.0866],[17.4668,31.03],[17.6917,30.9597],[17.8486,30.9237],[17.9268,30.8552],[18.1753,30.7861],[18.3242,30.6569],[18.5684,30.5001],[18.6532,30.4223],[18.7805,30.3759],[18.926,30.2934],[19.0568,30.2662],[19.2875,30.286]],[[-1.3717,45.9953],[-1.2336,45.9917],[-1.2604,45.8818],[-1.3717,45.9953]],[[-6.1425,53.5945],[-6.0749,53.5397],[-6.1244,53.4686],[-6.1103,53.394],[-6.2153,53.3581],[-6.097,53.2855],[-6.0992,53.2147],[-6.0304,53.111],[-6.0516,53.0093],[-5.9966,52.9649],[-6.1301,52.816],[-6.2153,52.666],[-6.2091,52.5458],[-6.3655,52.3935],[-6.4481,52.3559],[-6.3183,52.2408],[-6.3699,52.18],[-6.4897,52.1998],[-6.5972,52.1796],[-6.7863,52.21],[-6.8971,52.152],[-7.0172,52.1384],[-7.4355,52.1257],[-7.5541,52.0602],[-7.5899,51.9912],[-7.8293,51.9534],[-7.8915,51.8819],[-8.1342,51.8048],[-8.2102,51.8845],[-8.3474,51.892],[-8.3017,51.7582],[-8.4975,51.6927],[-8.5392,51.6484],[-8.8539,51.5959],[-8.888,51.5556],[-9.1077,51.5494],[-9.3492,51.474],[-9.425,51.5576],[-9.5563,51.5081],[-9.8066,51.4457],[-9.7703,51.5922],[-9.4586,51.684],[-9.5661,51.7167],[-9.6481,51.6808],[-9.8741,51.6562],[-10.0288,51.5965],[-9.9807,51.7319],[-10.1112,51.746],[-10.2346,51.851],[-10.3411,51.7883],[-10.3627,51.8872],[-10.2509,51.9155],[-10.2662,51.9885],[-9.9296,52.0719],[-10.0281,52.1396],[-10.1624,52.1187],[-10.2677,52.1358],[-10.4153,52.0997],[-10.4497,52.1889],[-10.2758,52.2681],[-10.1662,52.2346],[-10.0449,52.2693],[-9.9475,52.2376],[-9.8372,52.2543],[-9.8484,52.4284],[-9.6831,52.4946],[-9.577,52.5704],[-9.2721,52.5772],[-8.9911,52.625],[-8.9327,52.6871],[-8.9689,52.7708],[-9.1468,52.6238],[-9.2858,52.5908],[-9.5528,52.6393],[-9.8241,52.5952],[-9.5807,52.7434],[-9.4986,52.7525],[-9.4275,52.8778],[-9.4376,52.9667],[-9.2722,53.1467],[-9.1586,53.111],[-8.9635,53.1518],[-8.9327,53.2147],[-9.0221,53.2755],[-9.4014,53.248],[-9.5117,53.2283],[-9.7431,53.3144],[-9.8979,53.3279],[-9.8602,53.3942],[-10.0257,53.3854],[-10.1527,53.5436],[-9.9307,53.5998],[-9.9084,53.7621],[-9.5664,53.7963],[-9.6155,53.8988],[-9.7582,53.8993],[-9.9108,53.8587],[-9.9084,53.9471],[-9.8385,53.9636],[-9.9882,54.2131],[-9.7855,54.3381],[-9.7069,54.3176],[-9.3845,54.2972],[-9.2095,54.2676],[-9.162,54.192],[-9.0513,54.2895],[-8.8718,54.2651],[-8.486,54.2886],[-8.6129,54.3755],[-8.3842,54.4682],[-8.2873,54.4794],[-8.1208,54.6466],[-8.4316,54.6413],[-8.5969,54.6193],[-8.7742,54.6599],[-8.7955,54.6984],[-8.4907,54.852],[-8.3961,54.9553],[-8.4566,54.9954],[-8.263,55.1611],[-8.1596,55.1387],[-8.021,55.1888],[-7.8142,55.2018],[-7.6682,55.1472],[-7.5278,55.1326],[-7.5136,55.2744],[-7.3678,55.3106],[-7.3325,55.3728],[-7.1442,55.2936],[-6.9396,55.2391],[-7.1595,55.1508],[-7.1954,55.0581],[-7.0172,55.0711],[-6.9467,55.1954],[-6.7545,55.1778],[-6.4759,55.2487],[-6.2558,55.2109],[-6.101,55.2124],[-6.0371,55.1679],[-6.0621,55.0741],[-5.9883,54.9887],[-5.8863,54.9408],[-5.7976,54.8445],[-5.702,54.8247],[-5.748,54.6804],[-5.5366,54.6575],[-5.4335,54.4663],[-5.4612,54.3921],[-5.5766,54.4028],[-5.5474,54.4891],[-5.64,54.4958],[-5.6614,54.3796],[-5.5505,54.3654],[-5.6126,54.2556],[-5.862,54.2305],[-5.912,54.0913],[-6.1855,53.9797],[-6.3478,54.0036],[-6.379,53.9169],[-6.2432,53.8651],[-6.2228,53.6461],[-6.1425,53.5945]],[[-3.0463,54.9821],[-3.1354,54.9681],[-3.4538,54.9818],[-3.5836,54.9681],[-3.5984,54.878],[-3.8443,54.8663],[-3.8238,54.8247],[-3.9642,54.7719],[-4.123,54.773],[-4.2397,54.843],[-4.3476,54.8073],[-4.3481,54.702],[-4.5056,54.7047],[-4.5967,54.7753],[-4.8591,54.8663],[-4.9537,54.81],[-5.1282,54.8489],[-5.1755,54.9146],[-5.1708,55.0087],[-5.047,55.0151],[-5.0078,55.1412],[-4.8824,55.2186],[-4.8325,55.3311],[-4.6178,55.4956],[-4.6711,55.5844],[-4.9205,55.7086],[-4.8611,55.7567],[-4.8926,55.8929],[-4.7858,55.957],[-4.898,56.0012],[-4.9831,55.871],[-5.1715,55.9355],[-5.3348,55.8967],[-5.3136,56.0124],[-5.4476,56.0094],[-5.4072,55.8663],[-5.3178,55.783],[-5.4335,55.721],[-5.4901,55.6446],[-5.455,55.5919],[-5.5621,55.4199],[-5.515,55.3737],[-5.64,55.3039],[-5.7723,55.3013],[-5.7914,55.3986],[-5.7156,55.4479],[-5.7218,55.5646],[-5.5812,55.7576],[-5.6467,55.7875],[-5.6964,55.916],[-5.5868,56.012],[-5.5225,56.1658],[-5.5981,56.2586],[-5.5096,56.4006],[-5.3943,56.4655],[-5.4109,56.5521],[-5.3402,56.6931],[-5.6674,56.4985],[-5.8544,56.5505],[-6.0034,56.6187],[-5.9556,56.6887],[-6.2228,56.6955],[-6.1805,56.7546],[-5.9136,56.7637],[-5.7355,56.8941],[-5.8522,56.9077],[-5.8317,56.9971],[-5.5994,57.2792],[-5.7293,57.2982],[-5.8078,57.3549],[-5.8697,57.5009],[-5.7628,57.634],[-5.8074,57.8439],[-5.6126,57.9288],[-5.487,57.8559],[-5.2926,57.9806],[-5.2751,58.1545],[-5.3108,58.2434],[-5.0964,58.2768],[-5.1732,58.3539],[-5.0501,58.4538],[-4.9882,58.6283],[-4.728,58.5775],[-4.4755,58.5656],[-4.3824,58.5246],[-4.1606,58.5626],[-3.8101,58.5731],[-3.6599,58.6208],[-3.5321,58.6021],[-3.2041,58.6611],[-3.0191,58.6403],[-3.1293,58.5126],[-3.0863,58.4142],[-3.2205,58.3056],[-3.4381,58.236],[-3.5153,58.1684],[-3.8275,58.0421],[-3.8606,57.9989],[-4.0301,57.9532],[-3.9883,57.9083],[-4.1391,57.8469],[-3.9148,57.8077],[-3.9883,57.696],[-4.078,57.7303],[-4.1186,57.593],[-4.035,57.5569],[-3.8375,57.593],[-3.6848,57.6544],[-3.5358,57.6619],[-3.4919,57.7131],[-3.2847,57.7204],[-3.0787,57.6694],[-2.9161,57.7028],[-2.6589,57.6975],[-2.4329,57.6681],[-2.1081,57.705],[-1.9325,57.6824],[-1.8295,57.6135],[-1.7593,57.4736],[-1.9803,57.3193],[-2.0447,57.2265],[-2.0493,57.1188],[-2.1562,57.0207],[-2.2199,56.8726],[-2.4407,56.7348],[-2.53,56.5808],[-2.7648,56.4757],[-2.8216,56.3762],[-2.5768,56.2839],[-2.6483,56.2287],[-2.7836,56.192],[-2.9643,56.2056],[-3.1276,56.1229],[-3.1784,56.0581],[-3.421,56.0249],[-3.3035,55.9776],[-2.9399,55.9693],[-2.8028,56.0648],[-2.6351,56.0581],[-2.3078,55.935],[-2.1468,55.9173],[-1.8217,55.6364],[-1.6308,55.5851],[-1.585,55.4837],[-1.5701,55.2862],[-1.5179,55.1571],[-1.3558,54.9043],[-1.2755,54.7484],[-1.1036,54.6247],[-0.7879,54.5608],[-0.563,54.4774],[-0.4306,54.3493],[-0.3976,54.2692],[-0.2771,54.2178],[-0.2339,54.1605],[-0.1114,54.1316],[-0.2195,54.0228],[-0.1511,53.8993],[0.1335,53.6426],[-0.1886,53.6204],[-0.0466,53.5704],[0.2195,53.4195],[0.3421,53.2263],[0.3298,53.0865],[0.1608,53.009],[0.0221,52.9126],[0.1709,52.8621],[0.2468,52.7957],[0.3792,52.7908],[0.4857,52.9335],[0.5696,52.9693],[0.9661,52.9744],[1.2747,52.9292],[1.396,52.8914],[1.6442,52.7758],[1.7472,52.6252],[1.7712,52.4859],[1.6305,52.2705],[1.5823,52.0815],[1.5037,52.061],[1.3323,51.9401],[1.2883,51.8606],[1.1354,51.7817],[0.9888,51.8303],[0.887,51.7821],[0.9518,51.6784],[0.9245,51.5883],[0.7713,51.5283],[0.5545,51.4122],[0.7644,51.3644],[0.9772,51.3492],[1.1009,51.3732],[1.4238,51.3921],[1.3806,51.3048],[1.4131,51.2217],[1.3572,51.131],[1.0276,51.0417],[0.9452,50.9094],[0.8023,50.9392],[0.6242,50.8587],[0.3703,50.8188],[0.271,50.7474],[0.1221,50.7608],[-0.1732,50.829],[-0.3976,50.8021],[-0.569,50.8021],[-0.8128,50.7348],[-0.9392,50.8432],[-1.0562,50.783],[-1.3173,50.8002],[-1.6706,50.7401],[-1.9493,50.7133],[-1.9837,50.5966],[-2.4359,50.6375],[-2.4835,50.5904],[-2.6929,50.6928],[-2.8648,50.7338],[-3.2598,50.6745],[-3.2956,50.6375],[-3.4673,50.5856],[-3.505,50.5012],[-3.4875,50.4116],[-3.5389,50.3444],[-3.632,50.3123],[-3.6456,50.226],[-3.8263,50.2342],[-3.9499,50.319],[-4.0329,50.2949],[-4.2161,50.4157],[-4.2523,50.3564],[-4.3837,50.3675],[-4.4954,50.3284],[-4.7521,50.3303],[-4.8002,50.2296],[-5.0204,50.192],[-5.1061,50.0951],[-5.0981,50.0144],[-5.2104,49.9667],[-5.324,50.0895],[-5.4748,50.1304],[-5.5784,50.0548],[-5.7051,50.0523],[-5.6846,50.1615],[-5.511,50.2195],[-5.438,50.1943],[-5.1465,50.3553],[-5.0503,50.4287],[-5.0253,50.5242],[-4.8957,50.5859],[-4.7925,50.5952],[-4.7281,50.6723],[-4.5501,50.8096],[-4.5264,51.015],[-4.3377,50.9966],[-4.2347,51.0553],[-4.2098,51.1728],[-4.1523,51.2116],[-3.7692,51.2477],[-3.4342,51.2098],[-3.385,51.1862],[-3.0575,51.2082],[-2.9596,51.3743],[-2.8164,51.4736],[-2.6962,51.5126],[-2.6938,51.5962],[-2.8587,51.5461],[-3.1056,51.4972],[-3.1848,51.3976],[-3.2894,51.3842],[-3.5392,51.3985],[-3.7179,51.4786],[-3.8549,51.6238],[-3.9746,51.563],[-4.2725,51.5548],[-4.2937,51.6723],[-4.3793,51.7269],[-4.6454,51.7321],[-4.7123,51.6501],[-4.8483,51.6463],[-4.941,51.5965],[-5.0512,51.6569],[-5.0099,51.7064],[-5.2301,51.73],[-5.1071,51.7881],[-5.1259,51.856],[-5.2889,51.9169],[-5.1195,51.9589],[-5.0702,52.0264],[-4.9617,52.0075],[-4.7776,52.0649],[-4.6375,52.1385],[-4.5138,52.1357],[-4.1971,52.2793],[-4.0963,52.3879],[-4.0531,52.5424],[-4.1222,52.6287],[-4.0488,52.7216],[-4.1252,52.7783],[-4.1299,52.8892],[-4.2285,52.9192],[-4.4066,52.8925],[-4.501,52.8268],[-4.6486,52.7996],[-4.7554,52.8093],[-4.5961,52.9284],[-4.3582,53.0285],[-4.3409,53.1127],[-4.1515,53.2281],[-4.0669,53.2291],[-3.7689,53.3192],[-3.7163,53.2869],[-3.5623,53.2944],[-3.3303,53.3518],[-3.1222,53.2623],[-3.1852,53.3773],[-3.0583,53.4348],[-3.0995,53.572],[-2.9517,53.7081],[-3.0492,53.7695],[-3.0176,53.932],[-2.882,53.9565],[-2.9182,54.0343],[-2.796,54.1252],[-2.8509,54.1846],[-3.061,54.1619],[-3.1179,54.1088],[-3.241,54.1121],[-3.4074,54.2777],[-3.4743,54.3935],[-3.6342,54.5129],[-3.5007,54.726],[-3.4396,54.7615],[-3.3879,54.8834],[-3.2765,54.9434],[-3.1228,54.9327],[-3.0463,54.9821]],[[-1.4528,50.6543],[-1.5059,50.7077],[-1.2958,50.7732],[-1.0623,50.6928],[-1.1684,50.6035],[-1.3155,50.5892],[-1.4528,50.6543]],[[-4.2801,53.155],[-4.3439,53.1321],[-4.496,53.1826],[-4.571,53.2755],[-4.5535,53.4006],[-4.4254,53.4267],[-4.2767,53.401],[-4.2032,53.2985],[-4.1955,53.2203],[-4.2801,53.155]],[[-4.7277,54.1726],[-4.5984,54.2766],[-4.531,54.3661],[-4.442,54.4044],[-4.3119,54.2872],[-4.3908,54.1947],[-4.6564,54.0638],[-4.7709,54.0968],[-4.7277,54.1726]],[[-5.126,55.6055],[-5.0782,55.4553],[-5.1636,55.4349],[-5.3457,55.4827],[-5.3891,55.5902],[-5.3552,55.6896],[-5.2632,55.7228],[-5.16,55.6762],[-5.126,55.6055]],[[-6.0791,55.7815],[-6.0235,55.6819],[-6.2153,55.6267],[-6.321,55.7335],[-6.463,55.6745],[-6.4932,55.7392],[-6.4091,55.8636],[-6.1202,55.9294],[-6.0791,55.7815]],[[-5.91,55.9765],[-5.9833,56.0089],[-5.7465,56.1418],[-5.7402,56.0765],[-5.9621,55.8048],[-6.0624,55.8095],[-6.0752,55.916],[-5.91,55.9765]],[[-5.6968,56.4757],[-5.6484,56.4477],[-5.72,56.3528],[-5.9148,56.3355],[-6.147,56.2839],[-6.3275,56.2772],[-6.3354,56.3445],[-6.2032,56.3803],[-6.1274,56.4744],[-6.2885,56.5323],[-6.2884,56.608],[-6.1907,56.6449],[-6.0583,56.6402],[-5.9521,56.5242],[-5.7873,56.5136],[-5.6968,56.4757]],[[-6.3419,56.9419],[-6.4555,57.004],[-6.3642,57.0557],[-6.2432,57.0102],[-6.3419,56.9419]],[[-6.5176,57.3989],[-6.5806,57.3388],[-6.7148,57.3766],[-6.7065,57.5109],[-6.5641,57.5588],[-6.4649,57.5125],[-6.373,57.5316],[-6.4157,57.6458],[-6.3143,57.6992],[-6.1539,57.5895],[-6.1525,57.4175],[-6.1066,57.3235],[-5.9006,57.2429],[-5.7958,57.2718],[-5.6474,57.2646],[-5.6909,57.1895],[-5.9189,57.0501],[-6.0235,57.1957],[-6.3183,57.161],[-6.4822,57.3118],[-6.5176,57.3989]],[[-7.3705,57.3551],[-7.2438,57.3255],[-7.2711,57.1479],[-7.3907,57.1291],[-7.4554,57.2367],[-7.3705,57.3551]],[[-7.256,57.6669],[-7.1817,57.6885],[-7.0651,57.634],[-7.1575,57.5111],[-7.2875,57.5088],[-7.3512,57.5537],[-7.5448,57.593],[-7.256,57.6669]],[[-6.8459,57.8164],[-6.9808,57.7351],[-7.0793,57.8127],[-6.8971,57.9356],[-7.0363,57.9606],[-7.1265,58.124],[-7.0561,58.2257],[-6.8971,58.1721],[-6.7985,58.2024],[-6.8186,58.2851],[-6.3456,58.4632],[-6.2674,58.512],[-6.1669,58.4195],[-6.1888,58.3408],[-6.3179,58.2683],[-6.394,58.1018],[-6.3524,58.0386],[-6.5375,57.9213],[-6.8459,57.8164]],[[-10.0632,54.0228],[-9.9759,54.0211],[-9.9364,53.8925],[-10.0555,53.9137],[-10.0632,54.0228]],[[11.5056,58.013],[11.6597,58.0455],[11.7319,57.9977],[11.5947,57.9356],[11.5056,58.013]],[[4.8543,53.1877],[4.9131,53.1048],[4.7957,53.0003],[4.7139,53.0546],[4.8543,53.1877]],[[3.7654,51.6784],[3.8101,51.7473],[3.9396,51.7412],[4.089,51.644],[3.978,51.6233],[3.7959,51.7001],[3.7654,51.6784]],[[8.8811,56.8054],[8.7661,56.6987],[8.6484,56.6811],[8.5532,56.7681],[8.6484,56.8907],[8.8364,56.8693],[8.8811,56.8054]],[[10.855,57.2646],[10.9466,57.3046],[11.0666,57.2913],[11.0288,57.2019],[10.855,57.2646]],[[11.9286,54.9314],[12.0964,54.8981],[12.1702,54.8383],[11.9607,54.6941],[11.7497,54.8731],[11.793,54.9513],[11.8828,54.9755],[11.8053,55.0739],[11.6494,55.181],[11.4232,55.2219],[11.2454,55.2148],[11.1621,55.3192],[11.2131,55.4158],[11.0711,55.6769],[11.1218,55.7365],[11.2522,55.7291],[11.6409,55.9434],[11.7627,55.7495],[11.8692,55.8048],[12.0261,55.9414],[11.8656,55.9727],[12.2451,56.1287],[12.4861,56.099],[12.6219,56.0438],[12.5127,55.9208],[12.6022,55.7973],[12.6022,55.7086],[12.465,55.6055],[12.4036,55.6192],[12.2482,55.5461],[12.2249,55.4349],[12.4446,55.3489],[12.3924,55.2553],[12.1828,55.2272],[12.0466,55.1401],[12.1257,55.0711],[12.1489,54.9941],[11.9286,54.9314]],[[12.2942,55.0234],[12.5047,55.0198],[12.5028,54.9482],[12.314,54.9509],[12.2268,54.8926],[12.1292,54.9544],[12.2942,55.0234]],[[14.889,55.2332],[15.1316,55.1455],[15.1477,55.0956],[15.0727,54.9916],[14.7808,55.0511],[14.6996,55.0892],[14.7057,55.2257],[14.7521,55.2988],[14.889,55.2332]],[[13.6068,54.499],[13.5993,54.3518],[13.4997,54.3449],[13.347,54.2375],[13.2101,54.2758],[13.1155,54.3381],[13.2511,54.3869],[13.1818,54.453],[13.1664,54.5494],[13.3748,54.5256],[13.4663,54.5769],[13.6405,54.5857],[13.6068,54.499]],[[11.0204,54.459],[11.1213,54.536],[11.24,54.4956],[11.3142,54.4138],[11.0204,54.459]],[[11.7873,54.8315],[11.8486,54.7732],[11.8464,54.6978],[11.7661,54.6466],[11.6105,54.6664],[11.4518,54.6284],[11.1878,54.7322],[11.0305,54.7606],[11.0784,54.8411],[11.0188,54.9034],[11.0881,54.9442],[11.2317,54.9612],[11.3689,54.8811],[11.5728,54.848],[11.6563,54.8663],[11.7873,54.8315]],[[10.7178,54.9073],[10.8377,54.9372],[10.7411,54.7524],[10.6409,54.8432],[10.7178,54.9073]],[[10.7879,55.1495],[10.7337,55.0718],[10.5383,55.0297],[10.3128,55.0637],[10.113,55.1838],[10.0393,55.181],[9.884,55.2535],[9.8848,55.3489],[9.8122,55.4411],[9.6839,55.506],[9.8274,55.5484],[9.8882,55.5087],[10.3076,55.6182],[10.4885,55.5455],[10.5025,55.4636],[10.7381,55.5093],[10.6979,55.4403],[10.8284,55.3066],[10.7879,55.1495]],[[9.6284,55.0581],[9.7935,55.0808],[10.0259,54.9598],[10.0651,54.8908],[9.968,54.8595],[9.7809,54.9168],[9.7991,55.0165],[9.6284,55.0581]],[[17.0972,57.3528],[17.0663,57.2267],[16.8831,56.9162],[16.7816,56.8106],[16.6432,56.5684],[16.5664,56.3461],[16.4909,56.2396],[16.4126,56.2293],[16.3989,56.5447],[16.6209,56.8723],[16.7168,56.8918],[16.8884,57.1182],[16.9665,57.3046],[17.0972,57.3528]],[[18.9413,57.9021],[19.015,57.822],[18.9413,57.7296],[18.8103,57.7097],[18.8103,57.6073],[18.7614,57.5076],[18.7702,57.3645],[18.6668,57.2968],[18.7141,57.2429],[18.4312,57.1543],[18.3447,57.0827],[18.3584,56.9897],[18.2039,56.9152],[18.228,57.1337],[18.0994,57.259],[18.1792,57.3795],[18.112,57.5111],[18.1615,57.5779],[18.325,57.6726],[18.4631,57.8032],[18.5949,57.8314],[18.658,57.9018],[18.7844,57.8396],[18.9413,57.9021]],[[11.6774,58.2714],[11.7894,58.2464],[11.8047,58.1257],[11.7082,58.0982],[11.429,58.161],[11.6774,58.2714]],[[10.8937,33.6582],[10.8089,33.7343],[10.7402,33.7155],[10.736,33.8848],[10.9299,33.8963],[11.0603,33.8007],[10.8937,33.6582]],[[14.3426,35.9117],[14.4285,35.9657],[14.5078,35.9285],[14.5671,35.8456],[14.5275,35.8012],[14.4245,35.8237],[14.3426,35.9117]],[[15.2835,37.833],[15.2186,37.7181],[15.1638,37.5677],[15.0967,37.4945],[15.1107,37.3218],[15.2175,37.285],[15.1834,37.2075],[15.3294,37.0277],[15.1747,36.9441],[15.094,36.7995],[15.1349,36.6877],[15.0736,36.6591],[14.8822,36.7307],[14.7808,36.6994],[14.6589,36.7538],[14.4873,36.7934],[14.3945,36.945],[14.2788,37.044],[14.0886,37.1177],[13.8944,37.1008],[13.6834,37.1894],[13.5692,37.2735],[13.4526,37.2988],[13.278,37.3937],[13.1741,37.487],[13.0515,37.5007],[12.9426,37.5685],[12.6978,37.5627],[12.5947,37.6379],[12.489,37.6827],[12.427,37.797],[12.5042,38.0112],[12.5763,38.0717],[12.7254,38.1259],[12.9011,38.0281],[13.0274,38.0624],[13.1009,38.1901],[13.2072,38.1761],[13.3102,38.2195],[13.3719,38.1728],[13.3914,38.1032],[13.5135,38.1105],[13.5474,38.0562],[13.6511,38.001],[13.7908,37.9736],[14.0205,38.0494],[14.1063,38.0214],[14.2732,38.0151],[14.4319,38.0494],[14.5117,38.0444],[14.6346,38.0815],[14.7337,38.1576],[14.9071,38.1877],[15.0879,38.1282],[15.1774,38.1563],[15.2454,38.2172],[15.3997,38.2326],[15.5129,38.2976],[15.5838,38.2404],[15.5003,38.0849],[15.3926,37.9761],[15.2835,37.833]],[[16.6384,42.9348],[16.7205,42.9901],[16.9729,42.9267],[16.8514,42.9007],[16.6384,42.9348]],[[16.0488,43.0652],[16.1702,43.0877],[16.2103,43.0333],[16.0872,43.0115],[16.0488,43.0652]],[[16.4603,43.2098],[16.6595,43.216],[16.6931,43.1273],[16.4452,43.1708],[16.4603,43.2098]],[[16.4535,43.3941],[16.6877,43.377],[16.8098,43.3532],[16.8462,43.2734],[16.6283,43.2637],[16.4219,43.3176],[16.4535,43.3941]],[[15.0617,44.5007],[15.0833,44.4619],[15.2544,44.34],[15.0967,44.34],[14.9588,44.4667],[14.8452,44.6005],[14.9041,44.61],[15.0617,44.5007]],[[14.3836,44.7578],[14.3298,44.8339],[14.3015,44.9434],[14.4519,44.8509],[14.4722,44.708],[14.3836,44.7578]],[[14.4416,45.0998],[14.514,45.1291],[14.5633,45.2497],[14.6653,45.1618],[14.6653,45.0873],[14.815,44.9775],[14.7064,44.9467],[14.5907,45.0233],[14.4601,45.0524],[14.4416,45.0998]],[[1.4147,38.8906],[1.2599,38.8579],[1.2122,38.9032],[1.2928,39.0333],[1.3568,39.0776],[1.5371,39.118],[1.6231,39.0292],[1.5098,38.9302],[1.4147,38.8906]],[[8.406,38.9669],[8.3493,39.0622],[8.4634,39.0425],[8.406,38.9669]],[[9.6346,40.2826],[9.6546,40.1446],[9.7323,40.0839],[9.6934,39.9929],[9.6966,39.8519],[9.6489,39.639],[9.6449,39.484],[9.5676,39.2381],[9.5578,39.1397],[9.4504,39.1244],[9.3451,39.1964],[9.2525,39.2252],[9.166,39.1871],[9.0789,39.2123],[9.0183,39.1461],[9.0449,39.0513],[9.0183,38.9953],[8.8415,38.8806],[8.7166,38.9326],[8.6428,38.89],[8.5801,38.9605],[8.5596,39.0567],[8.5044,39.0629],[8.3718,39.2306],[8.4264,39.2833],[8.3869,39.4698],[8.4634,39.5768],[8.444,39.757],[8.5068,39.7385],[8.5552,39.8527],[8.4942,39.9124],[8.3983,39.9053],[8.4014,40.0499],[8.49,40.1045],[8.4596,40.216],[8.4629,40.3145],[8.386,40.3518],[8.3945,40.4238],[8.312,40.5781],[8.2163,40.5706],[8.1406,40.6252],[8.1921,40.6942],[8.1338,40.7289],[8.2332,40.9101],[8.3102,40.8507],[8.5205,40.827],[8.641,40.8965],[8.7644,40.9138],[8.8396,40.9616],[9.0248,41.1289],[9.1576,41.1689],[9.1711,41.2429],[9.2306,41.2626],[9.5462,41.1209],[9.5431,41.0369],[9.5876,40.9958],[9.5733,40.9064],[9.6831,40.8654],[9.6618,40.809],[9.7445,40.6805],[9.7532,40.6053],[9.8267,40.5196],[9.7494,40.3773],[9.6346,40.2826]],[[3.406,39.592],[3.3233,39.5239],[3.2825,39.4201],[3.221,39.3599],[3.0608,39.2691],[2.9588,39.3632],[2.8255,39.3636],[2.7617,39.4002],[2.7549,39.5026],[2.6553,39.5647],[2.4927,39.4702],[2.4539,39.5374],[2.3821,39.5292],[2.3577,39.6119],[2.5697,39.7131],[2.7039,39.8142],[2.9333,39.9145],[3.1409,39.9281],[3.1248,39.8111],[3.1626,39.7691],[3.2925,39.7497],[3.3545,39.7844],[3.4685,39.7393],[3.406,39.592]],[[3.8391,39.9756],[3.8219,40.0476],[4.1078,40.0676],[4.2546,39.9975],[4.3073,39.9105],[4.2481,39.8165],[4.0151,39.9258],[3.8693,39.9255],[3.8391,39.9756]],[[8.6887,42.281],[8.6128,42.3524],[8.6675,42.5097],[8.8128,42.5996],[9.0183,42.6501],[9.1071,42.7259],[9.2368,42.7226],[9.3425,42.7491],[9.3057,42.8393],[9.3602,42.9286],[9.3418,42.9907],[9.4224,43.0174],[9.4844,42.8324],[9.4504,42.7089],[9.4566,42.6064],[9.5281,42.5635],[9.5322,42.3737],[9.5596,42.2946],[9.5527,42.113],[9.4032,41.9529],[9.4016,41.7064],[9.3333,41.6245],[9.3411,41.5693],[9.2647,41.5308],[9.2107,41.4409],[9.2232,41.3725],[9.0964,41.4035],[9.1052,41.4455],[8.9357,41.4892],[8.7781,41.5916],[8.8992,41.6955],[8.6956,41.7294],[8.8054,41.9069],[8.7444,41.9328],[8.6143,41.9008],[8.6646,42.0145],[8.738,42.0439],[8.5658,42.1745],[8.5863,42.2434],[8.6887,42.281]],[[10.3773,42.728],[10.3379,42.7648],[10.1472,42.7373],[10.1117,42.8013],[10.2659,42.8044],[10.3999,42.8688],[10.4367,42.8044],[10.3773,42.728]]]},"properties":{"Nombre":"Mar"}}
]}